[
{
  "Postcode": "32084",
  "City": "ALEKSANDROWICE",
  "Trasa": "KR1E"
},
{
  "Postcode": "32708",
  "City": "BACZKOW",
  "Trasa": "KR5C"
},
{
  "Postcode": "34600",
  "City": "BALAZOWKA",
  "Trasa": "KR6X"
},
{
  "Postcode": "32080",
  "City": "BALICE",
  "Trasa": "KR1E"
},
{
  "Postcode": "32083",
  "City": "BALICE",
  "Trasa": "KR1E"
},
{
  "Postcode": "32010",
  "City": "BARANOWKA",
  "Trasa": "KR3B"
},
{
  "Postcode": "32046",
  "City": "BARBARKA",
  "Trasa": "KR3B"
},
{
  "Postcode": "32086",
  "City": "BATOWICE",
  "Trasa": "KR3B"
},
{
  "Postcode": "32089",
  "City": "BEBLO",
  "Trasa": "KR1E"
},
{
  "Postcode": "32444",
  "City": "BECZARKA",
  "Trasa": "KR6X"
},
{
  "Postcode": "32089",
  "City": "BEDKOWICE",
  "Trasa": "KR1E"
},
{
  "Postcode": "32731",
  "City": "BELDNO",
  "Trasa": "KRX1"
},
{
  "Postcode": "33100",
  "City": "BIALA",
  "Trasa": "KR5A"
},
{
  "Postcode": "33330",
  "City": "BIALA NIZNA",
  "Trasa": "KR6A"
},
{
  "Postcode": "33312",
  "City": "BIALAWODA",
  "Trasa": "KR6B"
},
{
  "Postcode": "32089",
  "City": "BIALY KOSCIOL",
  "Trasa": "KR1E"
},
{
  "Postcode": "32087",
  "City": "BIBICE",
  "Trasa": "KR3B"
},
{
  "Postcode": "33395",
  "City": "BICZYCE DOLNE",
  "Trasa": "KR6B"
},
{
  "Postcode": "33395",
  "City": "BICZYCE GORNE",
  "Trasa": "KR6B"
},
{
  "Postcode": "32410",
  "City": "BIENKOWICE",
  "Trasa": "KR6X"
},
{
  "Postcode": "32420",
  "City": "BILCZYCE",
  "Trasa": "KR6X"
},
{
  "Postcode": "32020",
  "City": "BISKUPICE",
  "Trasa": "KR5X"
},
{
  "Postcode": "32095",
  "City": "BISKUPICE",
  "Trasa": "KR3B"
},
{
  "Postcode": "33130",
  "City": "BISKUPICE RADLOWSKIE",
  "Trasa": "KR5A"
},
{
  "Postcode": "33113",
  "City": "BLONIE",
  "Trasa": "KR5B"
},
{
  "Postcode": "33122",
  "City": "BOBROWNIKI MALE",
  "Trasa": "KR5A"
},
{
  "Postcode": "33131",
  "City": "BOBROWNIKI WIELKIE",
  "Trasa": "KR5A"
},
{
  "Postcode": "32700",
  "City": "BOCHNIA",
  "Trasa": "KR5C"
},
{
  "Postcode": "32701",
  "City": "BOCHNIA",
  "Trasa": "KR5C"
},
{
  "Postcode": "32702",
  "City": "BOCHNIA",
  "Trasa": "KR5C"
},
{
  "Postcode": "32703",
  "City": "BOCHNIA",
  "Trasa": "KR5C"
},
{
  "Postcode": "32706",
  "City": "BOCHNIA",
  "Trasa": "KR5C"
},
{
  "Postcode": "32740",
  "City": "BOCZOW",
  "Trasa": "KRX1"
},
{
  "Postcode": "32020",
  "City": "BODZANOW",
  "Trasa": "KR5X"
},
{
  "Postcode": "33121",
  "City": "BOGUMILOWICE",
  "Trasa": "KR5A"
},
{
  "Postcode": "33300",
  "City": "BOGUSZOWA",
  "Trasa": "KR6A"
},
{
  "Postcode": "32415",
  "City": "BOJANCZYCE",
  "Trasa": "KRX1"
},
{
  "Postcode": "32080",
  "City": "BOLECHOWICE",
  "Trasa": "KR1E"
},
{
  "Postcode": "32082",
  "City": "BOLECHOWICE",
  "Trasa": "KR1E"
},
{
  "Postcode": "32086",
  "City": "BOLEN",
  "Trasa": "KR3B"
},
{
  "Postcode": "32765",
  "City": "BOREK",
  "Trasa": "KR5C"
},
{
  "Postcode": "32400",
  "City": "BORZETA",
  "Trasa": "KR6X"
},
{
  "Postcode": "32086",
  "City": "BOSUTOW",
  "Trasa": "KR3B"
},
{
  "Postcode": "33140",
  "City": "BREN",
  "Trasa": "KR5A"
},
{
  "Postcode": "33200",
  "City": "BRNIK",
  "Trasa": "KR5A"
},
{
  "Postcode": "32090",
  "City": "BRONCZYCE",
  "Trasa": "KR3B"
},
{
  "Postcode": "32410",
  "City": "BRZACZOWICE",
  "Trasa": "KR6X"
},
{
  "Postcode": "32002",
  "City": "BRZEGI",
  "Trasa": "KR4A"
},
{
  "Postcode": "32800",
  "City": "BRZESKO",
  "Trasa": "KR5C"
},
{
  "Postcode": "32810",
  "City": "BRZESKO",
  "Trasa": "KR5C"
},
{
  "Postcode": "32014",
  "City": "BRZEZIE",
  "Trasa": "KR5X"
},
{
  "Postcode": "32080",
  "City": "BRZEZIE",
  "Trasa": "KR1E"
},
{
  "Postcode": "32064",
  "City": "BRZEZINKA",
  "Trasa": "KR1E"
},
{
  "Postcode": "33386",
  "City": "BRZEZNA",
  "Trasa": "KR6B"
},
{
  "Postcode": "32700",
  "City": "BRZEZNICA",
  "Trasa": "KR5C"
},
{
  "Postcode": "33130",
  "City": "BRZEZNICA",
  "Trasa": "KR5A"
},
{
  "Postcode": "32740",
  "City": "BRZEZOWA",
  "Trasa": "KRX1"
},
{
  "Postcode": "32084",
  "City": "BRZOSKWINIA",
  "Trasa": "KR1E"
},
{
  "Postcode": "32088",
  "City": "BRZOZOWKA",
  "Trasa": "KR3B"
},
{
  "Postcode": "33140",
  "City": "BRZOZOWKA",
  "Trasa": "KR5A"
},
{
  "Postcode": "32031",
  "City": "BRZYCZYNA",
  "Trasa": "KR1D"
},
{
  "Postcode": "32800",
  "City": "BUCZE",
  "Trasa": "KR5C"
},
{
  "Postcode": "32742",
  "City": "BUCZYNA",
  "Trasa": "KRX1"
},
{
  "Postcode": "32060",
  "City": "BUDZYN",
  "Trasa": "KR1E"
},
{
  "Postcode": "32031",
  "City": "BUKOW",
  "Trasa": "KR1D"
},
{
  "Postcode": "32083",
  "City": "BUROW",
  "Trasa": "KR1E"
},
{
  "Postcode": "32400",
  "City": "BYSINA",
  "Trasa": "KR6X"
},
{
  "Postcode": "38300",
  "City": "BYSTRA",
  "Trasa": "KR6A"
},
{
  "Postcode": "32020",
  "City": "BYSZYCE",
  "Trasa": "KR6X"
},
{
  "Postcode": "32731",
  "City": "BYTOMSKO",
  "Trasa": "KRX1"
},
{
  "Postcode": "32095",
  "City": "CELINY",
  "Trasa": "KR3B"
},
{
  "Postcode": "32744",
  "City": "CHELM",
  "Trasa": "KR5X"
},
{
  "Postcode": "33395",
  "City": "CHELMIEC",
  "Trasa": "KR6B"
},
{
  "Postcode": "32043",
  "City": "CHMIELARZE",
  "Trasa": "KR3B"
},
{
  "Postcode": "32007",
  "City": "CHOBOT",
  "Trasa": "KR5X"
},
{
  "Postcode": "33386",
  "City": "CHOCHOROWICE",
  "Trasa": "KR6B"
},
{
  "Postcode": "33325",
  "City": "CHODOROWA",
  "Trasa": "KR6A"
},
{
  "Postcode": "32060",
  "City": "CHOLERZYN",
  "Trasa": "KR1E"
},
{
  "Postcode": "33394",
  "City": "CHOMRANICE",
  "Trasa": "KR6B"
},
{
  "Postcode": "32020",
  "City": "CHORAGWICA",
  "Trasa": "KR5X"
},
{
  "Postcode": "33240",
  "City": "CHORAZEC",
  "Trasa": "KR5A"
},
{
  "Postcode": "32031",
  "City": "CHOROWICE",
  "Trasa": "KR1D"
},
{
  "Postcode": "32084",
  "City": "CHROSNA",
  "Trasa": "KR1E"
},
{
  "Postcode": "32742",
  "City": "CHROSTOWA",
  "Trasa": "KRX1"
},
{
  "Postcode": "32043",
  "City": "CIANOWICE",
  "Trasa": "KR3B"
},
{
  "Postcode": "32420",
  "City": "CICHAWA",
  "Trasa": "KR6X"
},
{
  "Postcode": "32740",
  "City": "CICHAWKA",
  "Trasa": "KRX1"
},
{
  "Postcode": "33333",
  "City": "CIENIAWA",
  "Trasa": "KR6A"
},
{
  "Postcode": "32700",
  "City": "CIKOWICE",
  "Trasa": "KR5C"
},
{
  "Postcode": "32089",
  "City": "CZAJOWICE",
  "Trasa": "KR1E"
},
{
  "Postcode": "32020",
  "City": "CZARNOCHOWICE",
  "Trasa": "KR4A"
},
{
  "Postcode": "32415",
  "City": "CZASLAW",
  "Trasa": "KRX1"
},
{
  "Postcode": "32860",
  "City": "CZCHOW",
  "Trasa": "KR6B"
},
{
  "Postcode": "32406",
  "City": "CZECHOWKA",
  "Trasa": "KR6X"
},
{
  "Postcode": "32090",
  "City": "CZECHY",
  "Trasa": "KR3B"
},
{
  "Postcode": "32010",
  "City": "CZULICE",
  "Trasa": "KR3A"
},
{
  "Postcode": "32420",
  "City": "CZYZOW",
  "Trasa": "KR5X"
},
{
  "Postcode": "32415",
  "City": "DABIE",
  "Trasa": "KRX1"
},
{
  "Postcode": "32014",
  "City": "DABROWA",
  "Trasa": "KR5X"
},
{
  "Postcode": "33311",
  "City": "DABROWA",
  "Trasa": "KR6A"
},
{
  "Postcode": "33200",
  "City": "DABROWA TARNOWSKA",
  "Trasa": "KR5A"
},
{
  "Postcode": "33208",
  "City": "DABROWA TARNOWSKA",
  "Trasa": "KR5A"
},
{
  "Postcode": "32744",
  "City": "DABROWICA",
  "Trasa": "KR5X"
},
{
  "Postcode": "32095",
  "City": "DAMICE",
  "Trasa": "KR3B"
},
{
  "Postcode": "32700",
  "City": "DAMIENICE",
  "Trasa": "KR5C"
},
{
  "Postcode": "32830",
  "City": "DEBINA LETOWSKA",
  "Trasa": "KR5C"
},
{
  "Postcode": "32830",
  "City": "DEBINA ZAKRZOWSKA",
  "Trasa": "KR5C"
},
{
  "Postcode": "32852",
  "City": "DEBNO",
  "Trasa": "KR5C"
},
{
  "Postcode": "32410",
  "City": "DOBCZYCE",
  "Trasa": "KR6X"
},
{
  "Postcode": "34642",
  "City": "DOBRA",
  "Trasa": "KRX1"
},
{
  "Postcode": "32020",
  "City": "DOBRANOWICE",
  "Trasa": "KR5X"
},
{
  "Postcode": "32125",
  "City": "DOBRANOWICE",
  "Trasa": "KR4A"
},
{
  "Postcode": "32010",
  "City": "DOJAZDOW",
  "Trasa": "KR3A"
},
{
  "Postcode": "32095",
  "City": "DOMIARKI",
  "Trasa": "KR3B"
},
{
  "Postcode": "32400",
  "City": "DROGINIA",
  "Trasa": "KR6X"
},
{
  "Postcode": "32086",
  "City": "DZIEKANOWICE",
  "Trasa": "KR3B"
},
{
  "Postcode": "32410",
  "City": "DZIEKANOWICE",
  "Trasa": "KR6X"
},
{
  "Postcode": "32420",
  "City": "FALKOWICE",
  "Trasa": "KR6X"
},
{
  "Postcode": "33335",
  "City": "FRYCOWA",
  "Trasa": "KR6A"
},
{
  "Postcode": "32031",
  "City": "GAJ",
  "Trasa": "KR1D"
},
{
  "Postcode": "32087",
  "City": "GARLICA DUCHOWNA",
  "Trasa": "KR3B"
},
{
  "Postcode": "32087",
  "City": "GARLICA MUROWANA",
  "Trasa": "KR3B"
},
{
  "Postcode": "32088",
  "City": "GARLICZKA",
  "Trasa": "KR3B"
},
{
  "Postcode": "32420",
  "City": "GDOW",
  "Trasa": "KR6X"
},
{
  "Postcode": "32420",
  "City": "GDOW (GRZYBOWA)",
  "Trasa": "KR6X"
},
{
  "Postcode": "32420",
  "City": "GDOW (NOWA WIES)",
  "Trasa": "KR6X"
},
{
  "Postcode": "32085",
  "City": "GIEBULTOW",
  "Trasa": "KR1E"
},
{
  "Postcode": "32744",
  "City": "GIERCZYCE",
  "Trasa": "KR5X"
},
{
  "Postcode": "32010",
  "City": "GLEBOKA",
  "Trasa": "KR3A"
},
{
  "Postcode": "32444",
  "City": "GLOGOCZOW",
  "Trasa": "KR6X"
},
{
  "Postcode": "33130",
  "City": "GLOW",
  "Trasa": "KR5A"
},
{
  "Postcode": "32864",
  "City": "GNOJNIK",
  "Trasa": "KR6B"
},
{
  "Postcode": "30698",
  "City": "GOLKOWICE",
  "Trasa": "KR5X"
},
{
  "Postcode": "32046",
  "City": "GOLYSZYN",
  "Trasa": "KR3B"
},
{
  "Postcode": "34623",
  "City": "GORA SWIETEGO JANA",
  "Trasa": "KRX1"
},
{
  "Postcode": "38300",
  "City": "GORLICE",
  "Trasa": "KR6A"
},
{
  "Postcode": "38301",
  "City": "GORLICE",
  "Trasa": "KR6A"
},
{
  "Postcode": "38320",
  "City": "GORLICE",
  "Trasa": "KR6A"
},
{
  "Postcode": "32091",
  "City": "GORNA WIES",
  "Trasa": "KR3B"
},
{
  "Postcode": "32020",
  "City": "GORZKOW",
  "Trasa": "KR6X"
},
{
  "Postcode": "32700",
  "City": "GORZKOW",
  "Trasa": "KR5C"
},
{
  "Postcode": "33122",
  "City": "GOSLAWICE",
  "Trasa": "KR5A"
},
{
  "Postcode": "32010",
  "City": "GOSZCZA",
  "Trasa": "KR3B"
},
{
  "Postcode": "32010",
  "City": "GOSZYCE",
  "Trasa": "KR3B"
},
{
  "Postcode": "32002",
  "City": "GRABIE",
  "Trasa": "KR4A"
},
{
  "Postcode": "32740",
  "City": "GRABIE",
  "Trasa": "KRX1"
},
{
  "Postcode": "32742",
  "City": "GRABINA",
  "Trasa": "KRX1"
},
{
  "Postcode": "32020",
  "City": "GRABOWKI",
  "Trasa": "KR5X"
},
{
  "Postcode": "32020",
  "City": "GRAJOW",
  "Trasa": "KR5X"
},
{
  "Postcode": "32088",
  "City": "GREBYNICE",
  "Trasa": "KR3B"
},
{
  "Postcode": "33331",
  "City": "GRODEK",
  "Trasa": "KR6A"
},
{
  "Postcode": "32015",
  "City": "GRODKOWICE",
  "Trasa": "KR5X"
},
{
  "Postcode": "32043",
  "City": "GRODZISKO",
  "Trasa": "KR3B"
},
{
  "Postcode": "32414",
  "City": "GRUSZOW",
  "Trasa": "KRX1"
},
{
  "Postcode": "33200",
  "City": "GRUSZOW MALY",
  "Trasa": "KR5A"
},
{
  "Postcode": "33200",
  "City": "GRUSZOW WIELKI",
  "Trasa": "KR5A"
},
{
  "Postcode": "33201",
  "City": "GRUSZOW WIELKI",
  "Trasa": "KR5A"
},
{
  "Postcode": "33330",
  "City": "GRYBOW",
  "Trasa": "KR6A"
},
{
  "Postcode": "32095",
  "City": "GRZEGORZOWICE MALE",
  "Trasa": "KR3B"
},
{
  "Postcode": "32095",
  "City": "GRZEGORZOWICE WIELKIE",
  "Trasa": "KR3B"
},
{
  "Postcode": "32420",
  "City": "HUCISKO",
  "Trasa": "KR6X"
},
{
  "Postcode": "32125",
  "City": "IGOLOMIA",
  "Trasa": "KR4A"
},
{
  "Postcode": "33131",
  "City": "ILKOWICE",
  "Trasa": "KR5A"
},
{
  "Postcode": "33132",
  "City": "ILKOWICE",
  "Trasa": "KR5A"
},
{
  "Postcode": "32095",
  "City": "IWANOWICE DWORSKIE",
  "Trasa": "KR3B"
},
{
  "Postcode": "32095",
  "City": "IWANOWICE WLOSCIANSKIE",
  "Trasa": "KR3B"
},
{
  "Postcode": "32800",
  "City": "JADOWNIKI",
  "Trasa": "KR5C"
},
{
  "Postcode": "32851",
  "City": "JADOWNIKI",
  "Trasa": "KR5C"
},
{
  "Postcode": "33300",
  "City": "JAMNICA",
  "Trasa": "KR6A"
},
{
  "Postcode": "32090",
  "City": "JANIKOWICE",
  "Trasa": "KR3B"
},
{
  "Postcode": "32020",
  "City": "JANKOWKA",
  "Trasa": "KR6X"
},
{
  "Postcode": "32020",
  "City": "JANOWICE",
  "Trasa": "KR5X"
},
{
  "Postcode": "34623",
  "City": "JANOWICE",
  "Trasa": "KRX1"
},
{
  "Postcode": "33300",
  "City": "JANUSZOWA",
  "Trasa": "KR6A"
},
{
  "Postcode": "32088",
  "City": "JANUSZOWICE",
  "Trasa": "KR3B"
},
{
  "Postcode": "32090",
  "City": "JANUSZOWICE",
  "Trasa": "KR3B"
},
{
  "Postcode": "32420",
  "City": "JAROSZOWKA",
  "Trasa": "KR6X"
},
{
  "Postcode": "32800",
  "City": "JASIEN",
  "Trasa": "KR5C"
},
{
  "Postcode": "32400",
  "City": "JASIENICA",
  "Trasa": "KR1B"
},
{
  "Postcode": "32852",
  "City": "JASTEW",
  "Trasa": "KR5C"
},
{
  "Postcode": "32020",
  "City": "JAWCZYCE",
  "Trasa": "KR5X"
},
{
  "Postcode": "32400",
  "City": "JAWORNIK",
  "Trasa": "KR6X"
},
{
  "Postcode": "32765",
  "City": "JODLOWKA",
  "Trasa": "KR5C"
},
{
  "Postcode": "34620",
  "City": "JODLOWNIK",
  "Trasa": "KRX1"
},
{
  "Postcode": "33386",
  "City": "JURASZOWA",
  "Trasa": "KR6B"
},
{
  "Postcode": "32860",
  "City": "JURKOW",
  "Trasa": "KR6B"
},
{
  "Postcode": "32090",
  "City": "KACICE",
  "Trasa": "KR3B"
},
{
  "Postcode": "33334",
  "City": "KAMIONKA MALA",
  "Trasa": "KR6A"
},
{
  "Postcode": "33334",
  "City": "KAMIONKA WIELKA",
  "Trasa": "KR6A"
},
{
  "Postcode": "32732",
  "City": "KAMIONNA",
  "Trasa": "KRX1"
},
{
  "Postcode": "32742",
  "City": "KAMYK",
  "Trasa": "KRX1"
},
{
  "Postcode": "34600",
  "City": "KANINA",
  "Trasa": "KR6X"
},
{
  "Postcode": "32010",
  "City": "KARNIOW",
  "Trasa": "KR3A"
},
{
  "Postcode": "32082",
  "City": "KARNIOWICE",
  "Trasa": "KR1E"
},
{
  "Postcode": "32414",
  "City": "KAWEC",
  "Trasa": "KRX1"
},
{
  "Postcode": "32090",
  "City": "KEPA",
  "Trasa": "KR3B"
},
{
  "Postcode": "33100",
  "City": "KEPA BOGUMILOWICKA",
  "Trasa": "KR5A"
},
{
  "Postcode": "32740",
  "City": "KEPANOW",
  "Trasa": "KRX1"
},
{
  "Postcode": "32732",
  "City": "KIERLIKOWKA",
  "Trasa": "KRX1"
},
{
  "Postcode": "34652",
  "City": "KISIELOWKA",
  "Trasa": "KRX1"
},
{
  "Postcode": "32015",
  "City": "KLAJ",
  "Trasa": "KR5C"
},
{
  "Postcode": "32420",
  "City": "KLECZANA",
  "Trasa": "KR6X"
},
{
  "Postcode": "33394",
  "City": "KLECZANY",
  "Trasa": "KR6B"
},
{
  "Postcode": "32084",
  "City": "KLESZCZOW",
  "Trasa": "KR1E"
},
{
  "Postcode": "33311",
  "City": "KLIMKOWKA",
  "Trasa": "KR6A"
},
{
  "Postcode": "34654",
  "City": "KLODNE",
  "Trasa": "KR6X"
},
{
  "Postcode": "33140",
  "City": "KOBIERZYN",
  "Trasa": "KR5A"
},
{
  "Postcode": "32082",
  "City": "KOBYLANY",
  "Trasa": "KR1E"
},
{
  "Postcode": "34603",
  "City": "KOBYLCZYNA",
  "Trasa": "KR6B"
},
{
  "Postcode": "32720",
  "City": "KOBYLE",
  "Trasa": "KR5C"
},
{
  "Postcode": "32740",
  "City": "KOBYLEC",
  "Trasa": "KRX1"
},
{
  "Postcode": "32064",
  "City": "KOCHANOW",
  "Trasa": "KR1E"
},
{
  "Postcode": "32010",
  "City": "KOCMYRZOW",
  "Trasa": "KR3A"
},
{
  "Postcode": "32002",
  "City": "KOKOTOW",
  "Trasa": "KR4A"
},
{
  "Postcode": "32415",
  "City": "KOMORNIKI",
  "Trasa": "KRX1"
},
{
  "Postcode": "33122",
  "City": "KOMOROW",
  "Trasa": "KR5A"
},
{
  "Postcode": "32031",
  "City": "KONARY",
  "Trasa": "KR1D"
},
{
  "Postcode": "32091",
  "City": "KONCZYCE",
  "Trasa": "KR3B"
},
{
  "Postcode": "33326",
  "City": "KONIUSZOWA",
  "Trasa": "KR6A"
},
{
  "Postcode": "32700",
  "City": "KOPALINY",
  "Trasa": "KR5C"
},
{
  "Postcode": "32720",
  "City": "KOPALINY",
  "Trasa": "KR5C"
},
{
  "Postcode": "32050",
  "City": "KOPANKA",
  "Trasa": "KR1D"
},
{
  "Postcode": "32410",
  "City": "KORNATKA",
  "Trasa": "KR6X"
},
{
  "Postcode": "33322",
  "City": "KORZENNA",
  "Trasa": "KR6A"
},
{
  "Postcode": "32088",
  "City": "KORZKIEW",
  "Trasa": "KR3B"
},
{
  "Postcode": "34620",
  "City": "KOSTRZA",
  "Trasa": "KRX1"
},
{
  "Postcode": "34600",
  "City": "KOSZARY",
  "Trasa": "KR6X"
},
{
  "Postcode": "33111",
  "City": "KOSZYCE MALE",
  "Trasa": "KR5B"
},
{
  "Postcode": "33110",
  "City": "KOSZYCE WIELKIE",
  "Trasa": "KR5B"
},
{
  "Postcode": "33111",
  "City": "KOSZYCE WIELKIE",
  "Trasa": "KR5B"
},
{
  "Postcode": "32091",
  "City": "KOZIEROW",
  "Trasa": "KR3B"
},
{
  "Postcode": "32125",
  "City": "KOZLICA",
  "Trasa": "KR4A"
},
{
  "Postcode": "32020",
  "City": "KOZMICE MALE",
  "Trasa": "KR5X"
},
{
  "Postcode": "32020",
  "City": "KOZMICE WIELKIE",
  "Trasa": "KR5X"
},
{
  "Postcode": "30001",
  "City": "KRAKOW",
  "Trasa": "KR2D"
},
{
  "Postcode": "30002",
  "City": "KRAKOW",
  "Trasa": "KR2B"
},
{
  "Postcode": "30003",
  "City": "KRAKOW",
  "Trasa": "KR2B"
},
{
  "Postcode": "30004",
  "City": "KRAKOW",
  "Trasa": "KR2B"
},
{
  "Postcode": "30006",
  "City": "KRAKOW",
  "Trasa": "KR2B"
},
{
  "Postcode": "30007",
  "City": "KRAKOW",
  "Trasa": "KR2B"
},
{
  "Postcode": "30009",
  "City": "KRAKOW",
  "Trasa": "KR2B"
},
{
  "Postcode": "30010",
  "City": "KRAKOW",
  "Trasa": "KR2B"
},
{
  "Postcode": "30011",
  "City": "KRAKOW",
  "Trasa": "KR2B"
},
{
  "Postcode": "30012",
  "City": "KRAKOW",
  "Trasa": "KR2B"
},
{
  "Postcode": "30014",
  "City": "KRAKOW",
  "Trasa": "KR2B"
},
{
  "Postcode": "30015",
  "City": "KRAKOW",
  "Trasa": "KR2B"
},
{
  "Postcode": "30016",
  "City": "KRAKOW",
  "Trasa": "KR2B"
},
{
  "Postcode": "30017",
  "City": "KRAKOW",
  "Trasa": "KR2B"
},
{
  "Postcode": "30018",
  "City": "KRAKOW",
  "Trasa": "KR2B"
},
{
  "Postcode": "30019",
  "City": "KRAKOW",
  "Trasa": "KR2B"
},
{
  "Postcode": "30020",
  "City": "KRAKOW",
  "Trasa": "KR2B"
},
{
  "Postcode": "30021",
  "City": "KRAKOW",
  "Trasa": "KR2B"
},
{
  "Postcode": "30022",
  "City": "KRAKOW",
  "Trasa": "KR2B"
},
{
  "Postcode": "30023",
  "City": "KRAKOW",
  "Trasa": "KR2B"
},
{
  "Postcode": "30024",
  "City": "KRAKOW",
  "Trasa": "KR2B"
},
{
  "Postcode": "30033",
  "City": "KRAKOW",
  "Trasa": "KR2B"
},
{
  "Postcode": "30034",
  "City": "KRAKOW",
  "Trasa": "KR2B"
},
{
  "Postcode": "30035",
  "City": "KRAKOW",
  "Trasa": "KR2B"
},
{
  "Postcode": "30036",
  "City": "KRAKOW",
  "Trasa": "KR2B"
},
{
  "Postcode": "30037",
  "City": "KRAKOW",
  "Trasa": "KR2B"
},
{
  "Postcode": "30038",
  "City": "KRAKOW",
  "Trasa": "KR2B"
},
{
  "Postcode": "30039",
  "City": "KRAKOW",
  "Trasa": "KR2B"
},
{
  "Postcode": "30040",
  "City": "KRAKOW",
  "Trasa": "KR2B"
},
{
  "Postcode": "30041",
  "City": "KRAKOW",
  "Trasa": "KR2B"
},
{
  "Postcode": "30042",
  "City": "KRAKOW",
  "Trasa": "KR2B"
},
{
  "Postcode": "30043",
  "City": "KRAKOW",
  "Trasa": "KR2B"
},
{
  "Postcode": "30045",
  "City": "KRAKOW",
  "Trasa": "KR2B"
},
{
  "Postcode": "30046",
  "City": "KRAKOW",
  "Trasa": "KR2B"
},
{
  "Postcode": "30047",
  "City": "KRAKOW",
  "Trasa": "KR2B"
},
{
  "Postcode": "30048",
  "City": "KRAKOW",
  "Trasa": "KR2B"
},
{
  "Postcode": "30049",
  "City": "KRAKOW",
  "Trasa": "KR2B"
},
{
  "Postcode": "30050",
  "City": "KRAKOW",
  "Trasa": "KR2B"
},
{
  "Postcode": "30051",
  "City": "KRAKOW",
  "Trasa": "KR2B"
},
{
  "Postcode": "30052",
  "City": "KRAKOW",
  "Trasa": "KR2B"
},
{
  "Postcode": "30053",
  "City": "KRAKOW",
  "Trasa": "KR2B"
},
{
  "Postcode": "30054",
  "City": "KRAKOW",
  "Trasa": "KR2B"
},
{
  "Postcode": "30055",
  "City": "KRAKOW",
  "Trasa": "KR2B"
},
{
  "Postcode": "30056",
  "City": "KRAKOW",
  "Trasa": "KR2B"
},
{
  "Postcode": "30057",
  "City": "KRAKOW",
  "Trasa": "KR2B"
},
{
  "Postcode": "30058",
  "City": "KRAKOW",
  "Trasa": "KR2B"
},
{
  "Postcode": "30059",
  "City": "KRAKOW",
  "Trasa": "KR2B"
},
{
  "Postcode": "30060",
  "City": "KRAKOW",
  "Trasa": "KR2C"
},
{
  "Postcode": "30061",
  "City": "KRAKOW",
  "Trasa": "KR2C"
},
{
  "Postcode": "30062",
  "City": "KRAKOW",
  "Trasa": "KR2C"
},
{
  "Postcode": "30063",
  "City": "KRAKOW",
  "Trasa": "KR2C"
},
{
  "Postcode": "30065",
  "City": "KRAKOW",
  "Trasa": "KR2B"
},
{
  "Postcode": "30066",
  "City": "KRAKOW",
  "Trasa": "KR2B"
},
{
  "Postcode": "30067",
  "City": "KRAKOW",
  "Trasa": "KR2B"
},
{
  "Postcode": "30069",
  "City": "KRAKOW",
  "Trasa": "KR2B"
},
{
  "Postcode": "30070",
  "City": "KRAKOW",
  "Trasa": "KR2B"
},
{
  "Postcode": "30071",
  "City": "KRAKOW",
  "Trasa": "KR2B"
},
{
  "Postcode": "30072",
  "City": "KRAKOW",
  "Trasa": "KR2B"
},
{
  "Postcode": "30073",
  "City": "KRAKOW",
  "Trasa": "KR2B"
},
{
  "Postcode": "30074",
  "City": "KRAKOW",
  "Trasa": "KR2B"
},
{
  "Postcode": "30075",
  "City": "KRAKOW",
  "Trasa": "KR2B"
},
{
  "Postcode": "30076",
  "City": "KRAKOW",
  "Trasa": "KR2B"
},
{
  "Postcode": "30077",
  "City": "KRAKOW",
  "Trasa": "KR2B"
},
{
  "Postcode": "30078",
  "City": "KRAKOW",
  "Trasa": "KR2B"
},
{
  "Postcode": "30079",
  "City": "KRAKOW",
  "Trasa": "KR2B"
},
{
  "Postcode": "30081",
  "City": "KRAKOW",
  "Trasa": "KR2B"
},
{
  "Postcode": "30082",
  "City": "KRAKOW",
  "Trasa": "KR2B"
},
{
  "Postcode": "30084",
  "City": "KRAKOW",
  "Trasa": "KR2B"
},
{
  "Postcode": "30085",
  "City": "KRAKOW",
  "Trasa": "KR2A"
},
{
  "Postcode": "30086",
  "City": "KRAKOW",
  "Trasa": "KR2A"
},
{
  "Postcode": "30087",
  "City": "KRAKOW",
  "Trasa": "KR2A"
},
{
  "Postcode": "30091",
  "City": "KRAKOW",
  "Trasa": "KR2A"
},
{
  "Postcode": "30092",
  "City": "KRAKOW",
  "Trasa": "KR2A"
},
{
  "Postcode": "30093",
  "City": "KRAKOW",
  "Trasa": "KR2A"
},
{
  "Postcode": "30094",
  "City": "KRAKOW",
  "Trasa": "KR2A"
},
{
  "Postcode": "30095",
  "City": "KRAKOW",
  "Trasa": "KR2A"
},
{
  "Postcode": "30100",
  "City": "KRAKOW",
  "Trasa": "KR2C"
},
{
  "Postcode": "30101",
  "City": "KRAKOW",
  "Trasa": "KR2C"
},
{
  "Postcode": "30102",
  "City": "KRAKOW",
  "Trasa": "KR2C"
},
{
  "Postcode": "30103",
  "City": "KRAKOW",
  "Trasa": "KR2C"
},
{
  "Postcode": "30104",
  "City": "KRAKOW",
  "Trasa": "KR2C"
},
{
  "Postcode": "30105",
  "City": "KRAKOW",
  "Trasa": "KR2C"
},
{
  "Postcode": "30106",
  "City": "KRAKOW",
  "Trasa": "KR2C"
},
{
  "Postcode": "30107",
  "City": "KRAKOW",
  "Trasa": "KR2C"
},
{
  "Postcode": "30108",
  "City": "KRAKOW",
  "Trasa": "KR2C"
},
{
  "Postcode": "30109",
  "City": "KRAKOW",
  "Trasa": "KR2C"
},
{
  "Postcode": "30110",
  "City": "KRAKOW",
  "Trasa": "KR2C"
},
{
  "Postcode": "30111",
  "City": "KRAKOW",
  "Trasa": "KR2C"
},
{
  "Postcode": "30112",
  "City": "KRAKOW",
  "Trasa": "KR2C"
},
{
  "Postcode": "30114",
  "City": "KRAKOW",
  "Trasa": "KR2C"
},
{
  "Postcode": "30116",
  "City": "KRAKOW",
  "Trasa": "KR2C"
},
{
  "Postcode": "30117",
  "City": "KRAKOW",
  "Trasa": "KR2C"
},
{
  "Postcode": "30118",
  "City": "KRAKOW",
  "Trasa": "KR2C"
},
{
  "Postcode": "30119",
  "City": "KRAKOW",
  "Trasa": "KR2C"
},
{
  "Postcode": "30120",
  "City": "KRAKOW",
  "Trasa": "KR2B"
},
{
  "Postcode": "30121",
  "City": "KRAKOW",
  "Trasa": "KR2A"
},
{
  "Postcode": "30122",
  "City": "KRAKOW",
  "Trasa": "KR2B"
},
{
  "Postcode": "30123",
  "City": "KRAKOW",
  "Trasa": "KR2B"
},
{
  "Postcode": "30124",
  "City": "KRAKOW",
  "Trasa": "KR2B"
},
{
  "Postcode": "30126",
  "City": "KRAKOW",
  "Trasa": "KR2B"
},
{
  "Postcode": "30127",
  "City": "KRAKOW",
  "Trasa": "KR2B"
},
{
  "Postcode": "30128",
  "City": "KRAKOW",
  "Trasa": "KR2B"
},
{
  "Postcode": "30129",
  "City": "KRAKOW",
  "Trasa": "KR2B"
},
{
  "Postcode": "30130",
  "City": "KRAKOW",
  "Trasa": "KR2B"
},
{
  "Postcode": "30131",
  "City": "KRAKOW",
  "Trasa": "KR2B"
},
{
  "Postcode": "30132",
  "City": "KRAKOW",
  "Trasa": "KR2B"
},
{
  "Postcode": "30133",
  "City": "KRAKOW",
  "Trasa": "KR2B"
},
{
  "Postcode": "30134",
  "City": "KRAKOW",
  "Trasa": "KR2B"
},
{
  "Postcode": "30135",
  "City": "KRAKOW",
  "Trasa": "KR2A"
},
{
  "Postcode": "30136",
  "City": "KRAKOW",
  "Trasa": "KR2B"
},
{
  "Postcode": "30138",
  "City": "KRAKOW",
  "Trasa": "KR2A"
},
{
  "Postcode": "30139",
  "City": "KRAKOW",
  "Trasa": "KR2A"
},
{
  "Postcode": "30142",
  "City": "KRAKOW",
  "Trasa": "KR2B"
},
{
  "Postcode": "30143",
  "City": "KRAKOW",
  "Trasa": "KR2B"
},
{
  "Postcode": "30144",
  "City": "KRAKOW",
  "Trasa": "KR2C"
},
{
  "Postcode": "30145",
  "City": "KRAKOW",
  "Trasa": "KR2C"
},
{
  "Postcode": "30146",
  "City": "KRAKOW",
  "Trasa": "KR2C"
},
{
  "Postcode": "30147",
  "City": "KRAKOW",
  "Trasa": "KR2A"
},
{
  "Postcode": "30148",
  "City": "KRAKOW",
  "Trasa": "KR2A"
},
{
  "Postcode": "30149",
  "City": "KRAKOW",
  "Trasa": "KR2A"
},
{
  "Postcode": "30150",
  "City": "KRAKOW",
  "Trasa": "KR2B"
},
{
  "Postcode": "30198",
  "City": "KRAKOW",
  "Trasa": "KR2A"
},
{
  "Postcode": "30201",
  "City": "KRAKOW",
  "Trasa": "KR2C"
},
{
  "Postcode": "30202",
  "City": "KRAKOW",
  "Trasa": "KR2C"
},
{
  "Postcode": "30203",
  "City": "KRAKOW",
  "Trasa": "KR2C"
},
{
  "Postcode": "30204",
  "City": "KRAKOW",
  "Trasa": "KR2C"
},
{
  "Postcode": "30205",
  "City": "KRAKOW",
  "Trasa": "KR2C"
},
{
  "Postcode": "30206",
  "City": "KRAKOW",
  "Trasa": "KR2C"
},
{
  "Postcode": "30207",
  "City": "KRAKOW",
  "Trasa": "KR2C"
},
{
  "Postcode": "30209",
  "City": "KRAKOW",
  "Trasa": "KR2C"
},
{
  "Postcode": "30210",
  "City": "KRAKOW",
  "Trasa": "KR2C"
},
{
  "Postcode": "30211",
  "City": "KRAKOW",
  "Trasa": "KR2C"
},
{
  "Postcode": "30212",
  "City": "KRAKOW",
  "Trasa": "KR2C"
},
{
  "Postcode": "30213",
  "City": "KRAKOW",
  "Trasa": "KR2C"
},
{
  "Postcode": "30214",
  "City": "KRAKOW",
  "Trasa": "KR2C"
},
{
  "Postcode": "30215",
  "City": "KRAKOW",
  "Trasa": "KR2C"
},
{
  "Postcode": "30216",
  "City": "KRAKOW",
  "Trasa": "KR2C"
},
{
  "Postcode": "30217",
  "City": "KRAKOW",
  "Trasa": "KR2C"
},
{
  "Postcode": "30218",
  "City": "KRAKOW",
  "Trasa": "KR2C"
},
{
  "Postcode": "30219",
  "City": "KRAKOW",
  "Trasa": "KR2C"
},
{
  "Postcode": "30220",
  "City": "KRAKOW",
  "Trasa": "KR2C"
},
{
  "Postcode": "30221",
  "City": "KRAKOW",
  "Trasa": "KR2C"
},
{
  "Postcode": "30222",
  "City": "KRAKOW",
  "Trasa": "KR2C"
},
{
  "Postcode": "30223",
  "City": "KRAKOW",
  "Trasa": "KR2C"
},
{
  "Postcode": "30224",
  "City": "KRAKOW",
  "Trasa": "KR2C"
},
{
  "Postcode": "30225",
  "City": "KRAKOW",
  "Trasa": "KR2C"
},
{
  "Postcode": "30227",
  "City": "KRAKOW",
  "Trasa": "KR2C"
},
{
  "Postcode": "30228",
  "City": "KRAKOW",
  "Trasa": "KR2C"
},
{
  "Postcode": "30229",
  "City": "KRAKOW",
  "Trasa": "KR2C"
},
{
  "Postcode": "30230",
  "City": "KRAKOW",
  "Trasa": "KR2C"
},
{
  "Postcode": "30231",
  "City": "KRAKOW",
  "Trasa": "KR2C"
},
{
  "Postcode": "30232",
  "City": "KRAKOW",
  "Trasa": "KR2C"
},
{
  "Postcode": "30233",
  "City": "KRAKOW",
  "Trasa": "KR2C"
},
{
  "Postcode": "30234",
  "City": "KRAKOW",
  "Trasa": "KR2C"
},
{
  "Postcode": "30235",
  "City": "KRAKOW",
  "Trasa": "KR2C"
},
{
  "Postcode": "30236",
  "City": "KRAKOW",
  "Trasa": "KR2C"
},
{
  "Postcode": "30237",
  "City": "KRAKOW",
  "Trasa": "KR2C"
},
{
  "Postcode": "30238",
  "City": "KRAKOW",
  "Trasa": "KR2C"
},
{
  "Postcode": "30239",
  "City": "KRAKOW",
  "Trasa": "KR2C"
},
{
  "Postcode": "30240",
  "City": "KRAKOW",
  "Trasa": "KR2C"
},
{
  "Postcode": "30241",
  "City": "KRAKOW",
  "Trasa": "KR2C"
},
{
  "Postcode": "30243",
  "City": "KRAKOW",
  "Trasa": "KR2C"
},
{
  "Postcode": "30244",
  "City": "KRAKOW",
  "Trasa": "KR2C"
},
{
  "Postcode": "30245",
  "City": "KRAKOW",
  "Trasa": "KR2C"
},
{
  "Postcode": "30246",
  "City": "KRAKOW",
  "Trasa": "KR2C"
},
{
  "Postcode": "30247",
  "City": "KRAKOW",
  "Trasa": "KR2C"
},
{
  "Postcode": "30248",
  "City": "KRAKOW",
  "Trasa": "KR2C"
},
{
  "Postcode": "30249",
  "City": "KRAKOW",
  "Trasa": "KR2C"
},
{
  "Postcode": "30250",
  "City": "KRAKOW",
  "Trasa": "KR2C"
},
{
  "Postcode": "30251",
  "City": "KRAKOW",
  "Trasa": "KR2C"
},
{
  "Postcode": "30252",
  "City": "KRAKOW",
  "Trasa": "KR2C"
},
{
  "Postcode": "30253",
  "City": "KRAKOW",
  "Trasa": "KR2C"
},
{
  "Postcode": "30254",
  "City": "KRAKOW",
  "Trasa": "KR2C"
},
{
  "Postcode": "30255",
  "City": "KRAKOW",
  "Trasa": "KR2C"
},
{
  "Postcode": "30298",
  "City": "KRAKOW",
  "Trasa": "KR2C"
},
{
  "Postcode": "30300",
  "City": "KRAKOW",
  "Trasa": "KR2X"
},
{
  "Postcode": "30301",
  "City": "KRAKOW",
  "Trasa": "KR2C"
},
{
  "Postcode": "30302",
  "City": "KRAKOW",
  "Trasa": "KR2X"
},
{
  "Postcode": "30303",
  "City": "KRAKOW",
  "Trasa": "KR2C"
},
{
  "Postcode": "30304",
  "City": "KRAKOW",
  "Trasa": "KR2C"
},
{
  "Postcode": "30305",
  "City": "KRAKOW",
  "Trasa": "KR2C"
},
{
  "Postcode": "30306",
  "City": "KRAKOW",
  "Trasa": "KR2C"
},
{
  "Postcode": "30307",
  "City": "KRAKOW",
  "Trasa": "KR2C"
},
{
  "Postcode": "30308",
  "City": "KRAKOW",
  "Trasa": "KR2C"
},
{
  "Postcode": "30309",
  "City": "KRAKOW",
  "Trasa": "KR2X"
},
{
  "Postcode": "30310",
  "City": "KRAKOW",
  "Trasa": "KR2X"
},
{
  "Postcode": "30311",
  "City": "KRAKOW",
  "Trasa": "KR2X"
},
{
  "Postcode": "30312",
  "City": "KRAKOW",
  "Trasa": "KR2X"
},
{
  "Postcode": "30313",
  "City": "KRAKOW",
  "Trasa": "KR2X"
},
{
  "Postcode": "30314",
  "City": "KRAKOW",
  "Trasa": "KR2X"
},
{
  "Postcode": "30315",
  "City": "KRAKOW",
  "Trasa": "KR2X"
},
{
  "Postcode": "30316",
  "City": "KRAKOW",
  "Trasa": "KR2X"
},
{
  "Postcode": "30317",
  "City": "KRAKOW",
  "Trasa": "KR2C"
},
{
  "Postcode": "30318",
  "City": "KRAKOW",
  "Trasa": "KR2C"
},
{
  "Postcode": "30319",
  "City": "KRAKOW",
  "Trasa": "KR2C"
},
{
  "Postcode": "30320",
  "City": "KRAKOW",
  "Trasa": "KR2C"
},
{
  "Postcode": "30321",
  "City": "KRAKOW",
  "Trasa": "KR2C"
},
{
  "Postcode": "30322",
  "City": "KRAKOW",
  "Trasa": "KR2C"
},
{
  "Postcode": "30323",
  "City": "KRAKOW",
  "Trasa": "KR2C"
},
{
  "Postcode": "30324",
  "City": "KRAKOW",
  "Trasa": "KR2C"
},
{
  "Postcode": "30326",
  "City": "KRAKOW",
  "Trasa": "KR2C"
},
{
  "Postcode": "30327",
  "City": "KRAKOW",
  "Trasa": "KR2C"
},
{
  "Postcode": "30328",
  "City": "KRAKOW",
  "Trasa": "KR2C"
},
{
  "Postcode": "30329",
  "City": "KRAKOW",
  "Trasa": "KR2C"
},
{
  "Postcode": "30331",
  "City": "KRAKOW",
  "Trasa": "KR4C"
},
{
  "Postcode": "30332",
  "City": "KRAKOW",
  "Trasa": "KR4C"
},
{
  "Postcode": "30333",
  "City": "KRAKOW",
  "Trasa": "KR2X"
},
{
  "Postcode": "30334",
  "City": "KRAKOW",
  "Trasa": "KR2X"
},
{
  "Postcode": "30335",
  "City": "KRAKOW",
  "Trasa": "KR2X"
},
{
  "Postcode": "30336",
  "City": "KRAKOW",
  "Trasa": "KR2C"
},
{
  "Postcode": "30337",
  "City": "KRAKOW",
  "Trasa": "KR2X"
},
{
  "Postcode": "30346",
  "City": "KRAKOW",
  "Trasa": "KR2X"
},
{
  "Postcode": "30347",
  "City": "KRAKOW",
  "Trasa": "KR2X"
},
{
  "Postcode": "30364",
  "City": "KRAKOW",
  "Trasa": "KR1X"
},
{
  "Postcode": "30373",
  "City": "KRAKOW",
  "Trasa": "KR1X"
},
{
  "Postcode": "30358",
  "City": "KRAKOW",
  "Trasa": "KR1X"
},
{
  "Postcode": "30385",
  "City": "KRAKOW",
  "Trasa": "KR1X"
},
{
  "Postcode": "30361",
  "City": "KRAKOW",
  "Trasa": "KR2X"
},
{
  "Postcode": "30362",
  "City": "KRAKOW",
  "Trasa": "KR2X"
},
{
  "Postcode": "30363",
  "City": "KRAKOW",
  "Trasa": "KR4C"
},
{
  "Postcode": "30386",
  "City": "KRAKOW",
  "Trasa": "KR1X"
},
{
  "Postcode": "30387",
  "City": "KRAKOW",
  "Trasa": "KR1X"
},
{
  "Postcode": "30374",
  "City": "KRAKOW",
  "Trasa": "KR2X"
},
{
  "Postcode": "30376",
  "City": "KRAKOW",
  "Trasa": "KR2C"
},
{
  "Postcode": "30377",
  "City": "KRAKOW",
  "Trasa": "KR2C"
},
{
  "Postcode": "30379",
  "City": "KRAKOW",
  "Trasa": "KR2C"
},
{
  "Postcode": "30380",
  "City": "KRAKOW",
  "Trasa": "KR2C"
},
{
  "Postcode": "30381",
  "City": "KRAKOW",
  "Trasa": "KR2C"
},
{
  "Postcode": "30403",
  "City": "KRAKOW",
  "Trasa": "KR1X"
},
{
  "Postcode": "30409",
  "City": "KRAKOW",
  "Trasa": "KR1X"
},
{
  "Postcode": "30410",
  "City": "KRAKOW",
  "Trasa": "KR1X"
},
{
  "Postcode": "30411",
  "City": "KRAKOW",
  "Trasa": "KR1X"
},
{
  "Postcode": "30412",
  "City": "KRAKOW",
  "Trasa": "KR1X"
},
{
  "Postcode": "30431",
  "City": "KRAKOW",
  "Trasa": "KR1X"
},
{
  "Postcode": "30447",
  "City": "KRAKOW",
  "Trasa": "KR1X"
},
{
  "Postcode": "30349",
  "City": "KRAKOW",
  "Trasa": "KR1X"
},
{
  "Postcode": "30394",
  "City": "KRAKOW",
  "Trasa": "KR1X"
},
{
  "Postcode": "30396",
  "City": "KRAKOW",
  "Trasa": "KR1X"
},
{
  "Postcode": "30397",
  "City": "KRAKOW",
  "Trasa": "KR1X"
},
{
  "Postcode": "30388",
  "City": "KRAKOW",
  "Trasa": "KR1X"
},
{
  "Postcode": "30391",
  "City": "KRAKOW",
  "Trasa": "KR1X"
},
{
  "Postcode": "30395",
  "City": "KRAKOW",
  "Trasa": "KR1X"
},
{
  "Postcode": "30382",
  "City": "KRAKOW",
  "Trasa": "KR1X"
},
{
  "Postcode": "30393",
  "City": "KRAKOW",
  "Trasa": "KR1X"
},
{
  "Postcode": "30398",
  "City": "KRAKOW",
  "Trasa": "KR2C"
},
{
  "Postcode": "30399",
  "City": "KRAKOW",
  "Trasa": "KR1D"
},
{
  "Postcode": "30348",
  "City": "KRAKOW",
  "Trasa": "KR1X"
},
{
  "Postcode": "30404",
  "City": "KRAKOW",
  "Trasa": "KR4C"
},
{
  "Postcode": "30405",
  "City": "KRAKOW",
  "Trasa": "KR4C"
},
{
  "Postcode": "30406",
  "City": "KRAKOW",
  "Trasa": "KR4C"
},
{
  "Postcode": "30407",
  "City": "KRAKOW",
  "Trasa": "KR4C"
},
{
  "Postcode": "30408",
  "City": "KRAKOW",
  "Trasa": "KR4C"
},
{
  "Postcode": "30383",
  "City": "KRAKOW",
  "Trasa": "KR1X"
},
{
  "Postcode": "30384",
  "City": "KRAKOW",
  "Trasa": "KR1X"
},
{
  "Postcode": "30389",
  "City": "KRAKOW",
  "Trasa": "KR1X"
},
{
  "Postcode": "30392",
  "City": "KRAKOW",
  "Trasa": "KR1X"
},
{
  "Postcode": "30413",
  "City": "KRAKOW",
  "Trasa": "KR1X"
},
{
  "Postcode": "30414",
  "City": "KRAKOW",
  "Trasa": "KR1X"
},
{
  "Postcode": "30415",
  "City": "KRAKOW",
  "Trasa": "KR4C"
},
{
  "Postcode": "30416",
  "City": "KRAKOW",
  "Trasa": "KR4C"
},
{
  "Postcode": "30417",
  "City": "KRAKOW",
  "Trasa": "KR4C"
},
{
  "Postcode": "30418",
  "City": "KRAKOW",
  "Trasa": "KR4C"
},
{
  "Postcode": "30419",
  "City": "KRAKOW",
  "Trasa": "KR4C"
},
{
  "Postcode": "30424",
  "City": "KRAKOW",
  "Trasa": "KR1X"
},
{
  "Postcode": "30425",
  "City": "KRAKOW",
  "Trasa": "KR1X"
},
{
  "Postcode": "30426",
  "City": "KRAKOW",
  "Trasa": "KR1X"
},
{
  "Postcode": "30427",
  "City": "KRAKOW",
  "Trasa": "KR1X"
},
{
  "Postcode": "30428",
  "City": "KRAKOW",
  "Trasa": "KR1X"
},
{
  "Postcode": "30429",
  "City": "KRAKOW",
  "Trasa": "KR1X"
},
{
  "Postcode": "30430",
  "City": "KRAKOW",
  "Trasa": "KR1X"
},
{
  "Postcode": "30390",
  "City": "KRAKOW",
  "Trasa": "KR1X"
},
{
  "Postcode": "30420",
  "City": "KRAKOW",
  "Trasa": "KR1X"
},
{
  "Postcode": "30421",
  "City": "KRAKOW",
  "Trasa": "KR1X"
},
{
  "Postcode": "30422",
  "City": "KRAKOW",
  "Trasa": "KR1X"
},
{
  "Postcode": "30423",
  "City": "KRAKOW",
  "Trasa": "KR1X"
},
{
  "Postcode": "30436",
  "City": "KRAKOW",
  "Trasa": "KR1X"
},
{
  "Postcode": "30437",
  "City": "KRAKOW",
  "Trasa": "KR1X"
},
{
  "Postcode": "30438",
  "City": "KRAKOW",
  "Trasa": "KR1X"
},
{
  "Postcode": "30439",
  "City": "KRAKOW",
  "Trasa": "KR1X"
},
{
  "Postcode": "30440",
  "City": "KRAKOW",
  "Trasa": "KR1X"
},
{
  "Postcode": "30441",
  "City": "KRAKOW",
  "Trasa": "KR1X"
},
{
  "Postcode": "30442",
  "City": "KRAKOW",
  "Trasa": "KR1X"
},
{
  "Postcode": "30443",
  "City": "KRAKOW",
  "Trasa": "KR1X"
},
{
  "Postcode": "30445",
  "City": "KRAKOW",
  "Trasa": "KR1X"
},
{
  "Postcode": "30446",
  "City": "KRAKOW",
  "Trasa": "KR1X"
},
{
  "Postcode": "30350",
  "City": "KRAKOW",
  "Trasa": "KR1X"
},
{
  "Postcode": "30432",
  "City": "KRAKOW",
  "Trasa": "KR1X"
},
{
  "Postcode": "30433",
  "City": "KRAKOW",
  "Trasa": "KR1X"
},
{
  "Postcode": "30434",
  "City": "KRAKOW",
  "Trasa": "KR1X"
},
{
  "Postcode": "30435",
  "City": "KRAKOW",
  "Trasa": "KR1X"
},
{
  "Postcode": "30450",
  "City": "KRAKOW",
  "Trasa": "KR4C"
},
{
  "Postcode": "30498",
  "City": "KRAKOW",
  "Trasa": "KR1X"
},
{
  "Postcode": "30499",
  "City": "KRAKOW",
  "Trasa": "KR1D"
},
{
  "Postcode": "30500",
  "City": "KRAKOW",
  "Trasa": "KR4C"
},
{
  "Postcode": "30501",
  "City": "KRAKOW",
  "Trasa": "KR4C"
},
{
  "Postcode": "30502",
  "City": "KRAKOW",
  "Trasa": "KR4C"
},
{
  "Postcode": "30503",
  "City": "KRAKOW",
  "Trasa": "KR4C"
},
{
  "Postcode": "30504",
  "City": "KRAKOW",
  "Trasa": "KR4C"
},
{
  "Postcode": "30505",
  "City": "KRAKOW",
  "Trasa": "KR4C"
},
{
  "Postcode": "30506",
  "City": "KRAKOW",
  "Trasa": "KR4C"
},
{
  "Postcode": "30507",
  "City": "KRAKOW",
  "Trasa": "KR4C"
},
{
  "Postcode": "30508",
  "City": "KRAKOW",
  "Trasa": "KR4C"
},
{
  "Postcode": "30509",
  "City": "KRAKOW",
  "Trasa": "KR4C"
},
{
  "Postcode": "30510",
  "City": "KRAKOW",
  "Trasa": "KR4C"
},
{
  "Postcode": "30512",
  "City": "KRAKOW",
  "Trasa": "KR4C"
},
{
  "Postcode": "30513",
  "City": "KRAKOW",
  "Trasa": "KR4C"
},
{
  "Postcode": "30515",
  "City": "KRAKOW",
  "Trasa": "KR4C"
},
{
  "Postcode": "30516",
  "City": "KRAKOW",
  "Trasa": "KR4C"
},
{
  "Postcode": "30518",
  "City": "KRAKOW",
  "Trasa": "KR4C"
},
{
  "Postcode": "30519",
  "City": "KRAKOW",
  "Trasa": "KR4C"
},
{
  "Postcode": "30520",
  "City": "KRAKOW",
  "Trasa": "KR4C"
},
{
  "Postcode": "30521",
  "City": "KRAKOW",
  "Trasa": "KR4C"
},
{
  "Postcode": "30522",
  "City": "KRAKOW",
  "Trasa": "KR4C"
},
{
  "Postcode": "30523",
  "City": "KRAKOW",
  "Trasa": "KR4C"
},
{
  "Postcode": "30524",
  "City": "KRAKOW",
  "Trasa": "KR4B"
},
{
  "Postcode": "30525",
  "City": "KRAKOW",
  "Trasa": "KR4C"
},
{
  "Postcode": "30526",
  "City": "KRAKOW",
  "Trasa": "KR4C"
},
{
  "Postcode": "30527",
  "City": "KRAKOW",
  "Trasa": "KR4C"
},
{
  "Postcode": "30528",
  "City": "KRAKOW",
  "Trasa": "KR4C"
},
{
  "Postcode": "30529",
  "City": "KRAKOW",
  "Trasa": "KR4C"
},
{
  "Postcode": "30530",
  "City": "KRAKOW",
  "Trasa": "KR4C"
},
{
  "Postcode": "30531",
  "City": "KRAKOW",
  "Trasa": "KR4C"
},
{
  "Postcode": "30532",
  "City": "KRAKOW",
  "Trasa": "KR4C"
},
{
  "Postcode": "30533",
  "City": "KRAKOW",
  "Trasa": "KR4C"
},
{
  "Postcode": "30534",
  "City": "KRAKOW",
  "Trasa": "KR4C"
},
{
  "Postcode": "30535",
  "City": "KRAKOW",
  "Trasa": "KR4C"
},
{
  "Postcode": "30536",
  "City": "KRAKOW",
  "Trasa": "KR4C"
},
{
  "Postcode": "30537",
  "City": "KRAKOW",
  "Trasa": "KR4C"
},
{
  "Postcode": "30538",
  "City": "KRAKOW",
  "Trasa": "KR4C"
},
{
  "Postcode": "30539",
  "City": "KRAKOW",
  "Trasa": "KR4C"
},
{
  "Postcode": "30540",
  "City": "KRAKOW",
  "Trasa": "KR4C"
},
{
  "Postcode": "30542",
  "City": "KRAKOW",
  "Trasa": "KR4C"
},
{
  "Postcode": "30543",
  "City": "KRAKOW",
  "Trasa": "KR4C"
},
{
  "Postcode": "30544",
  "City": "KRAKOW",
  "Trasa": "KR4C"
},
{
  "Postcode": "30545",
  "City": "KRAKOW",
  "Trasa": "KR4C"
},
{
  "Postcode": "30546",
  "City": "KRAKOW",
  "Trasa": "KR4C"
},
{
  "Postcode": "30547",
  "City": "KRAKOW",
  "Trasa": "KR4C"
},
{
  "Postcode": "30548",
  "City": "KRAKOW",
  "Trasa": "KR4C"
},
{
  "Postcode": "30549",
  "City": "KRAKOW",
  "Trasa": "KR4C"
},
{
  "Postcode": "30550",
  "City": "KRAKOW",
  "Trasa": "KR4C"
},
{
  "Postcode": "30551",
  "City": "KRAKOW",
  "Trasa": "KR4C"
},
{
  "Postcode": "30552",
  "City": "KRAKOW",
  "Trasa": "KR4C"
},
{
  "Postcode": "30553",
  "City": "KRAKOW",
  "Trasa": "KR4C"
},
{
  "Postcode": "30554",
  "City": "KRAKOW",
  "Trasa": "KR4C"
},
{
  "Postcode": "30555",
  "City": "KRAKOW",
  "Trasa": "KR4C"
},
{
  "Postcode": "30556",
  "City": "KRAKOW",
  "Trasa": "KR4C"
},
{
  "Postcode": "30560",
  "City": "KRAKOW",
  "Trasa": "KR4C"
},
{
  "Postcode": "30563",
  "City": "KRAKOW",
  "Trasa": "KR4C"
},
{
  "Postcode": "30564",
  "City": "KRAKOW",
  "Trasa": "KR4C"
},
{
  "Postcode": "30565",
  "City": "KRAKOW",
  "Trasa": "KR4C"
},
{
  "Postcode": "30566",
  "City": "KRAKOW",
  "Trasa": "KR4C"
},
{
  "Postcode": "30568",
  "City": "KRAKOW",
  "Trasa": "KR4C"
},
{
  "Postcode": "30570",
  "City": "KRAKOW",
  "Trasa": "KR4C"
},
{
  "Postcode": "30571",
  "City": "KRAKOW",
  "Trasa": "KR4C"
},
{
  "Postcode": "30572",
  "City": "KRAKOW",
  "Trasa": "KR4C"
},
{
  "Postcode": "30601",
  "City": "KRAKOW",
  "Trasa": "KR4C"
},
{
  "Postcode": "30602",
  "City": "KRAKOW",
  "Trasa": "KR4C"
},
{
  "Postcode": "30603",
  "City": "KRAKOW",
  "Trasa": "KR4C"
},
{
  "Postcode": "30604",
  "City": "KRAKOW",
  "Trasa": "KR4C"
},
{
  "Postcode": "30605",
  "City": "KRAKOW",
  "Trasa": "KR4C"
},
{
  "Postcode": "30606",
  "City": "KRAKOW",
  "Trasa": "KR4C"
},
{
  "Postcode": "30607",
  "City": "KRAKOW",
  "Trasa": "KR4C"
},
{
  "Postcode": "30608",
  "City": "KRAKOW",
  "Trasa": "KR4C"
},
{
  "Postcode": "30609",
  "City": "KRAKOW",
  "Trasa": "KR4C"
},
{
  "Postcode": "30610",
  "City": "KRAKOW",
  "Trasa": "KR4C"
},
{
  "Postcode": "30611",
  "City": "KRAKOW",
  "Trasa": "KR4B"
},
{
  "Postcode": "30612",
  "City": "KRAKOW",
  "Trasa": "KR4B"
},
{
  "Postcode": "30613",
  "City": "KRAKOW",
  "Trasa": "KR4B"
},
{
  "Postcode": "30614",
  "City": "KRAKOW",
  "Trasa": "KR4B"
},
{
  "Postcode": "30615",
  "City": "KRAKOW",
  "Trasa": "KR5X"
},
{
  "Postcode": "30616",
  "City": "KRAKOW",
  "Trasa": "KR5X"
},
{
  "Postcode": "30617",
  "City": "KRAKOW",
  "Trasa": "KR5X"
},
{
  "Postcode": "30618",
  "City": "KRAKOW",
  "Trasa": "KR4B"
},
{
  "Postcode": "30619",
  "City": "KRAKOW",
  "Trasa": "KR4B"
},
{
  "Postcode": "30620",
  "City": "KRAKOW",
  "Trasa": "KR4B"
},
{
  "Postcode": "30621",
  "City": "KRAKOW",
  "Trasa": "KR4B"
},
{
  "Postcode": "30622",
  "City": "KRAKOW",
  "Trasa": "KR4B"
},
{
  "Postcode": "30623",
  "City": "KRAKOW",
  "Trasa": "KR4B"
},
{
  "Postcode": "30624",
  "City": "KRAKOW",
  "Trasa": "KR4B"
},
{
  "Postcode": "30625",
  "City": "KRAKOW",
  "Trasa": "KR4B"
},
{
  "Postcode": "30626",
  "City": "KRAKOW",
  "Trasa": "KR4B"
},
{
  "Postcode": "30627",
  "City": "KRAKOW",
  "Trasa": "KR4B"
},
{
  "Postcode": "30628",
  "City": "KRAKOW",
  "Trasa": "KR4B"
},
{
  "Postcode": "30629",
  "City": "KRAKOW",
  "Trasa": "KR4B"
},
{
  "Postcode": "30630",
  "City": "KRAKOW",
  "Trasa": "KR4B"
},
{
  "Postcode": "30631",
  "City": "KRAKOW",
  "Trasa": "KR4B"
},
{
  "Postcode": "30632",
  "City": "KRAKOW",
  "Trasa": "KR4B"
},
{
  "Postcode": "30633",
  "City": "KRAKOW",
  "Trasa": "KR4B"
},
{
  "Postcode": "30634",
  "City": "KRAKOW",
  "Trasa": "KR4B"
},
{
  "Postcode": "30638",
  "City": "KRAKOW",
  "Trasa": "KR4B"
},
{
  "Postcode": "30639",
  "City": "KRAKOW",
  "Trasa": "KR4B"
},
{
  "Postcode": "30641",
  "City": "KRAKOW",
  "Trasa": "KR4B"
},
{
  "Postcode": "30643",
  "City": "KRAKOW",
  "Trasa": "KR4B"
},
{
  "Postcode": "30644",
  "City": "KRAKOW",
  "Trasa": "KR4C"
},
{
  "Postcode": "30645",
  "City": "KRAKOW",
  "Trasa": "KR4B"
},
{
  "Postcode": "30646",
  "City": "KRAKOW",
  "Trasa": "KR4B"
},
{
  "Postcode": "30647",
  "City": "KRAKOW",
  "Trasa": "KR4B"
},
{
  "Postcode": "30648",
  "City": "KRAKOW",
  "Trasa": "KR4B"
},
{
  "Postcode": "30649",
  "City": "KRAKOW",
  "Trasa": "KR4B"
},
{
  "Postcode": "30650",
  "City": "KRAKOW",
  "Trasa": "KR4B"
},
{
  "Postcode": "30651",
  "City": "KRAKOW",
  "Trasa": "KR4B"
},
{
  "Postcode": "30652",
  "City": "KRAKOW",
  "Trasa": "KR4B"
},
{
  "Postcode": "30653",
  "City": "KRAKOW",
  "Trasa": "KR4B"
},
{
  "Postcode": "30654",
  "City": "KRAKOW",
  "Trasa": "KR4B"
},
{
  "Postcode": "30655",
  "City": "KRAKOW",
  "Trasa": "KR4B"
},
{
  "Postcode": "30656",
  "City": "KRAKOW",
  "Trasa": "KR4B"
},
{
  "Postcode": "30657",
  "City": "KRAKOW",
  "Trasa": "KR4B"
},
{
  "Postcode": "30658",
  "City": "KRAKOW",
  "Trasa": "KR4B"
},
{
  "Postcode": "30659",
  "City": "KRAKOW",
  "Trasa": "KR4B"
},
{
  "Postcode": "30660",
  "City": "KRAKOW",
  "Trasa": "KR4B"
},
{
  "Postcode": "30661",
  "City": "KRAKOW",
  "Trasa": "KR4B"
},
{
  "Postcode": "30662",
  "City": "KRAKOW",
  "Trasa": "KR4B"
},
{
  "Postcode": "30663",
  "City": "KRAKOW",
  "Trasa": "KR4B"
},
{
  "Postcode": "30664",
  "City": "KRAKOW",
  "Trasa": "KR4B"
},
{
  "Postcode": "30665",
  "City": "KRAKOW",
  "Trasa": "KR4B"
},
{
  "Postcode": "30666",
  "City": "KRAKOW",
  "Trasa": "KR4B"
},
{
  "Postcode": "30667",
  "City": "KRAKOW",
  "Trasa": "KR4B"
},
{
  "Postcode": "30668",
  "City": "KRAKOW",
  "Trasa": "KR4B"
},
{
  "Postcode": "30669",
  "City": "KRAKOW",
  "Trasa": "KR4B"
},
{
  "Postcode": "30670",
  "City": "KRAKOW",
  "Trasa": "KR4B"
},
{
  "Postcode": "30681",
  "City": "KRAKOW",
  "Trasa": "KR4B"
},
{
  "Postcode": "30682",
  "City": "KRAKOW",
  "Trasa": "KR4B"
},
{
  "Postcode": "30683",
  "City": "KRAKOW",
  "Trasa": "KR4B"
},
{
  "Postcode": "30684",
  "City": "KRAKOW",
  "Trasa": "KR4B"
},
{
  "Postcode": "30685",
  "City": "KRAKOW",
  "Trasa": "KR4B"
},
{
  "Postcode": "30686",
  "City": "KRAKOW",
  "Trasa": "KR4B"
},
{
  "Postcode": "30687",
  "City": "KRAKOW",
  "Trasa": "KR4B"
},
{
  "Postcode": "30688",
  "City": "KRAKOW",
  "Trasa": "KR4B"
},
{
  "Postcode": "30689",
  "City": "KRAKOW",
  "Trasa": "KR4B"
},
{
  "Postcode": "30690",
  "City": "KRAKOW",
  "Trasa": "KR4B"
},
{
  "Postcode": "30691",
  "City": "KRAKOW",
  "Trasa": "KR4B"
},
{
  "Postcode": "30693",
  "City": "KRAKOW",
  "Trasa": "KR4B"
},
{
  "Postcode": "30694",
  "City": "KRAKOW",
  "Trasa": "KR5X"
},
{
  "Postcode": "30695",
  "City": "KRAKOW",
  "Trasa": "KR4B"
},
{
  "Postcode": "30697",
  "City": "KRAKOW",
  "Trasa": "KR5X"
},
{
  "Postcode": "30698",
  "City": "KRAKOW",
  "Trasa": "KR5X"
},
{
  "Postcode": "30699",
  "City": "KRAKOW",
  "Trasa": "KR5X"
},
{
  "Postcode": "30701",
  "City": "KRAKOW",
  "Trasa": "KR4C"
},
{
  "Postcode": "30702",
  "City": "KRAKOW",
  "Trasa": "KR4C"
},
{
  "Postcode": "30703",
  "City": "KRAKOW",
  "Trasa": "KR4C"
},
{
  "Postcode": "30704",
  "City": "KRAKOW",
  "Trasa": "KR4X"
},
{
  "Postcode": "30705",
  "City": "KRAKOW",
  "Trasa": "KR4X"
},
{
  "Postcode": "30707",
  "City": "KRAKOW",
  "Trasa": "KR4X"
},
{
  "Postcode": "30709",
  "City": "KRAKOW",
  "Trasa": "KR4X"
},
{
  "Postcode": "30710",
  "City": "KRAKOW",
  "Trasa": "KR4C"
},
{
  "Postcode": "30711",
  "City": "KRAKOW",
  "Trasa": "KR4X"
},
{
  "Postcode": "30712",
  "City": "KRAKOW",
  "Trasa": "KR4X"
},
{
  "Postcode": "30713",
  "City": "KRAKOW",
  "Trasa": "KR4X"
},
{
  "Postcode": "30714",
  "City": "KRAKOW",
  "Trasa": "KR4X"
},
{
  "Postcode": "30715",
  "City": "KRAKOW",
  "Trasa": "KR4X"
},
{
  "Postcode": "30716",
  "City": "KRAKOW",
  "Trasa": "KR4X"
},
{
  "Postcode": "30717",
  "City": "KRAKOW",
  "Trasa": "KR4X"
},
{
  "Postcode": "30718",
  "City": "KRAKOW",
  "Trasa": "KR4X"
},
{
  "Postcode": "30719",
  "City": "KRAKOW",
  "Trasa": "KR4C"
},
{
  "Postcode": "30720",
  "City": "KRAKOW",
  "Trasa": "KR4X"
},
{
  "Postcode": "30721",
  "City": "KRAKOW",
  "Trasa": "KR4X"
},
{
  "Postcode": "30722",
  "City": "KRAKOW",
  "Trasa": "KR4X"
},
{
  "Postcode": "30723",
  "City": "KRAKOW",
  "Trasa": "KR4X"
},
{
  "Postcode": "30724",
  "City": "KRAKOW",
  "Trasa": "KR4X"
},
{
  "Postcode": "30725",
  "City": "KRAKOW",
  "Trasa": "KR4X"
},
{
  "Postcode": "30726",
  "City": "KRAKOW",
  "Trasa": "KR4X"
},
{
  "Postcode": "30727",
  "City": "KRAKOW",
  "Trasa": "KR4X"
},
{
  "Postcode": "30728",
  "City": "KRAKOW",
  "Trasa": "KR4X"
},
{
  "Postcode": "30729",
  "City": "KRAKOW",
  "Trasa": "KR4X"
},
{
  "Postcode": "30730",
  "City": "KRAKOW",
  "Trasa": "KR4X"
},
{
  "Postcode": "30731",
  "City": "KRAKOW",
  "Trasa": "KR4X"
},
{
  "Postcode": "30732",
  "City": "KRAKOW",
  "Trasa": "KR4X"
},
{
  "Postcode": "30733",
  "City": "KRAKOW",
  "Trasa": "KR4X"
},
{
  "Postcode": "30734",
  "City": "KRAKOW",
  "Trasa": "KR4X"
},
{
  "Postcode": "30735",
  "City": "KRAKOW",
  "Trasa": "KR4X"
},
{
  "Postcode": "30736",
  "City": "KRAKOW",
  "Trasa": "KR4X"
},
{
  "Postcode": "30737",
  "City": "KRAKOW",
  "Trasa": "KR4X"
},
{
  "Postcode": "30739",
  "City": "KRAKOW",
  "Trasa": "KR4A"
},
{
  "Postcode": "30740",
  "City": "KRAKOW",
  "Trasa": "KR4A"
},
{
  "Postcode": "30741",
  "City": "KRAKOW",
  "Trasa": "KR4A"
},
{
  "Postcode": "30742",
  "City": "KRAKOW",
  "Trasa": "KR4A"
},
{
  "Postcode": "30758",
  "City": "KRAKOW",
  "Trasa": "KR4A"
},
{
  "Postcode": "30797",
  "City": "KRAKOW",
  "Trasa": "KR4A"
},
{
  "Postcode": "30798",
  "City": "KRAKOW",
  "Trasa": "KR4A"
},
{
  "Postcode": "30799",
  "City": "KRAKOW",
  "Trasa": "KR4A"
},
{
  "Postcode": "30802",
  "City": "KRAKOW",
  "Trasa": "KR4B"
},
{
  "Postcode": "30803",
  "City": "KRAKOW",
  "Trasa": "KR4B"
},
{
  "Postcode": "30804",
  "City": "KRAKOW",
  "Trasa": "KR4B"
},
{
  "Postcode": "30805",
  "City": "KRAKOW",
  "Trasa": "KR4B"
},
{
  "Postcode": "30806",
  "City": "KRAKOW",
  "Trasa": "KR4B"
},
{
  "Postcode": "30807",
  "City": "KRAKOW",
  "Trasa": "KR4B"
},
{
  "Postcode": "30808",
  "City": "KRAKOW",
  "Trasa": "KR4B"
},
{
  "Postcode": "30809",
  "City": "KRAKOW",
  "Trasa": "KR4B"
},
{
  "Postcode": "30810",
  "City": "KRAKOW",
  "Trasa": "KR4B"
},
{
  "Postcode": "30811",
  "City": "KRAKOW",
  "Trasa": "KR4B"
},
{
  "Postcode": "30812",
  "City": "KRAKOW",
  "Trasa": "KR4B"
},
{
  "Postcode": "30813",
  "City": "KRAKOW",
  "Trasa": "KR4B"
},
{
  "Postcode": "30814",
  "City": "KRAKOW",
  "Trasa": "KR4B"
},
{
  "Postcode": "30815",
  "City": "KRAKOW",
  "Trasa": "KR4B"
},
{
  "Postcode": "30816",
  "City": "KRAKOW",
  "Trasa": "KR4B"
},
{
  "Postcode": "30817",
  "City": "KRAKOW",
  "Trasa": "KR4B"
},
{
  "Postcode": "30818",
  "City": "KRAKOW",
  "Trasa": "KR4B"
},
{
  "Postcode": "30819",
  "City": "KRAKOW",
  "Trasa": "KR4B"
},
{
  "Postcode": "30820",
  "City": "KRAKOW",
  "Trasa": "KR4B"
},
{
  "Postcode": "30821",
  "City": "KRAKOW",
  "Trasa": "KR4B"
},
{
  "Postcode": "30822",
  "City": "KRAKOW",
  "Trasa": "KR4B"
},
{
  "Postcode": "30823",
  "City": "KRAKOW",
  "Trasa": "KR4B"
},
{
  "Postcode": "30824",
  "City": "KRAKOW",
  "Trasa": "KR4B"
},
{
  "Postcode": "30825",
  "City": "KRAKOW",
  "Trasa": "KR4B"
},
{
  "Postcode": "30826",
  "City": "KRAKOW",
  "Trasa": "KR4B"
},
{
  "Postcode": "30827",
  "City": "KRAKOW",
  "Trasa": "KR4B"
},
{
  "Postcode": "30828",
  "City": "KRAKOW",
  "Trasa": "KR4B"
},
{
  "Postcode": "30829",
  "City": "KRAKOW",
  "Trasa": "KR4B"
},
{
  "Postcode": "30830",
  "City": "KRAKOW",
  "Trasa": "KR4B"
},
{
  "Postcode": "30833",
  "City": "KRAKOW",
  "Trasa": "KR4B"
},
{
  "Postcode": "30834",
  "City": "KRAKOW",
  "Trasa": "KR4B"
},
{
  "Postcode": "30835",
  "City": "KRAKOW",
  "Trasa": "KR4B"
},
{
  "Postcode": "30836",
  "City": "KRAKOW",
  "Trasa": "KR4B"
},
{
  "Postcode": "30837",
  "City": "KRAKOW",
  "Trasa": "KR4B"
},
{
  "Postcode": "30838",
  "City": "KRAKOW",
  "Trasa": "KR4B"
},
{
  "Postcode": "30851",
  "City": "KRAKOW",
  "Trasa": "KR4B"
},
{
  "Postcode": "30852",
  "City": "KRAKOW",
  "Trasa": "KR4B"
},
{
  "Postcode": "30853",
  "City": "KRAKOW",
  "Trasa": "KR4B"
},
{
  "Postcode": "30854",
  "City": "KRAKOW",
  "Trasa": "KR4B"
},
{
  "Postcode": "30855",
  "City": "KRAKOW",
  "Trasa": "KR4B"
},
{
  "Postcode": "30856",
  "City": "KRAKOW",
  "Trasa": "KR4B"
},
{
  "Postcode": "30857",
  "City": "KRAKOW",
  "Trasa": "KR4B"
},
{
  "Postcode": "30858",
  "City": "KRAKOW",
  "Trasa": "KR4A"
},
{
  "Postcode": "30863",
  "City": "KRAKOW",
  "Trasa": "KR4B"
},
{
  "Postcode": "30864",
  "City": "KRAKOW",
  "Trasa": "KR4B"
},
{
  "Postcode": "30865",
  "City": "KRAKOW",
  "Trasa": "KR4B"
},
{
  "Postcode": "30867",
  "City": "KRAKOW",
  "Trasa": "KR4B"
},
{
  "Postcode": "30868",
  "City": "KRAKOW",
  "Trasa": "KR4B"
},
{
  "Postcode": "30870",
  "City": "KRAKOW",
  "Trasa": "KR4B"
},
{
  "Postcode": "30898",
  "City": "KRAKOW",
  "Trasa": "KR4B"
},
{
  "Postcode": "30899",
  "City": "KRAKOW",
  "Trasa": "KR4B"
},
{
  "Postcode": "30902",
  "City": "KRAKOW",
  "Trasa": "KR4B"
},
{
  "Postcode": "30940",
  "City": "KRAKOW",
  "Trasa": "KR3X"
},
{
  "Postcode": "30945",
  "City": "KRAKOW",
  "Trasa": "KR4X"
},
{
  "Postcode": "31000",
  "City": "KRAKOW",
  "Trasa": "KR2D"
},
{
  "Postcode": "31001",
  "City": "KRAKOW",
  "Trasa": "KR2D"
},
{
  "Postcode": "31002",
  "City": "KRAKOW",
  "Trasa": "KR2D"
},
{
  "Postcode": "31003",
  "City": "KRAKOW",
  "Trasa": "KR2D"
},
{
  "Postcode": "31004",
  "City": "KRAKOW",
  "Trasa": "KR2D"
},
{
  "Postcode": "31005",
  "City": "KRAKOW",
  "Trasa": "KR2D"
},
{
  "Postcode": "31006",
  "City": "KRAKOW",
  "Trasa": "KR2D"
},
{
  "Postcode": "31007",
  "City": "KRAKOW",
  "Trasa": "KR2D"
},
{
  "Postcode": "31008",
  "City": "KRAKOW",
  "Trasa": "KR2D"
},
{
  "Postcode": "31009",
  "City": "KRAKOW",
  "Trasa": "KR2D"
},
{
  "Postcode": "31010",
  "City": "KRAKOW",
  "Trasa": "KR2D"
},
{
  "Postcode": "31011",
  "City": "KRAKOW",
  "Trasa": "KR2D"
},
{
  "Postcode": "31012",
  "City": "KRAKOW",
  "Trasa": "KR2D"
},
{
  "Postcode": "31013",
  "City": "KRAKOW",
  "Trasa": "KR2D"
},
{
  "Postcode": "31014",
  "City": "KRAKOW",
  "Trasa": "KR2D"
},
{
  "Postcode": "31015",
  "City": "KRAKOW",
  "Trasa": "KR2D"
},
{
  "Postcode": "31016",
  "City": "KRAKOW",
  "Trasa": "KR2D"
},
{
  "Postcode": "31017",
  "City": "KRAKOW",
  "Trasa": "KR2D"
},
{
  "Postcode": "31018",
  "City": "KRAKOW",
  "Trasa": "KR2D"
},
{
  "Postcode": "31019",
  "City": "KRAKOW",
  "Trasa": "KR2D"
},
{
  "Postcode": "31020",
  "City": "KRAKOW",
  "Trasa": "KR2D"
},
{
  "Postcode": "31021",
  "City": "KRAKOW",
  "Trasa": "KR2D"
},
{
  "Postcode": "31022",
  "City": "KRAKOW",
  "Trasa": "KR2D"
},
{
  "Postcode": "31023",
  "City": "KRAKOW",
  "Trasa": "KR2D"
},
{
  "Postcode": "31024",
  "City": "KRAKOW",
  "Trasa": "KR2D"
},
{
  "Postcode": "31025",
  "City": "KRAKOW",
  "Trasa": "KR2X"
},
{
  "Postcode": "31026",
  "City": "KRAKOW",
  "Trasa": "KR2X"
},
{
  "Postcode": "31027",
  "City": "KRAKOW",
  "Trasa": "KR2D"
},
{
  "Postcode": "31028",
  "City": "KRAKOW",
  "Trasa": "KR2D"
},
{
  "Postcode": "31029",
  "City": "KRAKOW",
  "Trasa": "KR2X"
},
{
  "Postcode": "31030",
  "City": "KRAKOW",
  "Trasa": "KR2X"
},
{
  "Postcode": "31031",
  "City": "KRAKOW",
  "Trasa": "KR2X"
},
{
  "Postcode": "31032",
  "City": "KRAKOW",
  "Trasa": "KR2X"
},
{
  "Postcode": "31033",
  "City": "KRAKOW",
  "Trasa": "KR2X"
},
{
  "Postcode": "31034",
  "City": "KRAKOW",
  "Trasa": "KR2X"
},
{
  "Postcode": "31035",
  "City": "KRAKOW",
  "Trasa": "KR2X"
},
{
  "Postcode": "31036",
  "City": "KRAKOW",
  "Trasa": "KR2X"
},
{
  "Postcode": "31037",
  "City": "KRAKOW",
  "Trasa": "KR2X"
},
{
  "Postcode": "31038",
  "City": "KRAKOW",
  "Trasa": "KR2X"
},
{
  "Postcode": "31039",
  "City": "KRAKOW",
  "Trasa": "KR2X"
},
{
  "Postcode": "31041",
  "City": "KRAKOW",
  "Trasa": "KR2D"
},
{
  "Postcode": "31042",
  "City": "KRAKOW",
  "Trasa": "KR2D"
},
{
  "Postcode": "31043",
  "City": "KRAKOW",
  "Trasa": "KR2D"
},
{
  "Postcode": "31044",
  "City": "KRAKOW",
  "Trasa": "KR2D"
},
{
  "Postcode": "31045",
  "City": "KRAKOW",
  "Trasa": "KR2X"
},
{
  "Postcode": "31046",
  "City": "KRAKOW",
  "Trasa": "KR2X"
},
{
  "Postcode": "31047",
  "City": "KRAKOW",
  "Trasa": "KR2X"
},
{
  "Postcode": "31048",
  "City": "KRAKOW",
  "Trasa": "KR2X"
},
{
  "Postcode": "31049",
  "City": "KRAKOW",
  "Trasa": "KR2X"
},
{
  "Postcode": "31050",
  "City": "KRAKOW",
  "Trasa": "KR2X"
},
{
  "Postcode": "31051",
  "City": "KRAKOW",
  "Trasa": "KR2X"
},
{
  "Postcode": "31052",
  "City": "KRAKOW",
  "Trasa": "KR2X"
},
{
  "Postcode": "31053",
  "City": "KRAKOW",
  "Trasa": "KR2X"
},
{
  "Postcode": "31054",
  "City": "KRAKOW",
  "Trasa": "KR2X"
},
{
  "Postcode": "31055",
  "City": "KRAKOW",
  "Trasa": "KR2X"
},
{
  "Postcode": "31056",
  "City": "KRAKOW",
  "Trasa": "KR2X"
},
{
  "Postcode": "31057",
  "City": "KRAKOW",
  "Trasa": "KR2X"
},
{
  "Postcode": "31058",
  "City": "KRAKOW",
  "Trasa": "KR2X"
},
{
  "Postcode": "31059",
  "City": "KRAKOW",
  "Trasa": "KR2X"
},
{
  "Postcode": "31060",
  "City": "KRAKOW",
  "Trasa": "KR2X"
},
{
  "Postcode": "31061",
  "City": "KRAKOW",
  "Trasa": "KR2X"
},
{
  "Postcode": "31062",
  "City": "KRAKOW",
  "Trasa": "KR2X"
},
{
  "Postcode": "31063",
  "City": "KRAKOW",
  "Trasa": "KR2X"
},
{
  "Postcode": "31064",
  "City": "KRAKOW",
  "Trasa": "KR2X"
},
{
  "Postcode": "31065",
  "City": "KRAKOW",
  "Trasa": "KR2X"
},
{
  "Postcode": "31066",
  "City": "KRAKOW",
  "Trasa": "KR2X"
},
{
  "Postcode": "31067",
  "City": "KRAKOW",
  "Trasa": "KR2X"
},
{
  "Postcode": "31068",
  "City": "KRAKOW",
  "Trasa": "KR2X"
},
{
  "Postcode": "31069",
  "City": "KRAKOW",
  "Trasa": "KR2X"
},
{
  "Postcode": "31070",
  "City": "KRAKOW",
  "Trasa": "KR2X"
},
{
  "Postcode": "31071",
  "City": "KRAKOW",
  "Trasa": "KR2X"
},
{
  "Postcode": "31072",
  "City": "KRAKOW",
  "Trasa": "KR2X"
},
{
  "Postcode": "31073",
  "City": "KRAKOW",
  "Trasa": "KR2X"
},
{
  "Postcode": "31075",
  "City": "KRAKOW",
  "Trasa": "KR2X"
},
{
  "Postcode": "31095",
  "City": "KRAKOW",
  "Trasa": "KR3A"
},
{
  "Postcode": "31101",
  "City": "KRAKOW",
  "Trasa": "KR2C"
},
{
  "Postcode": "31102",
  "City": "KRAKOW",
  "Trasa": "KR2C"
},
{
  "Postcode": "31103",
  "City": "KRAKOW",
  "Trasa": "KR2C"
},
{
  "Postcode": "31104",
  "City": "KRAKOW",
  "Trasa": "KR2C"
},
{
  "Postcode": "31105",
  "City": "KRAKOW",
  "Trasa": "KR2C"
},
{
  "Postcode": "31106",
  "City": "KRAKOW",
  "Trasa": "KR2C"
},
{
  "Postcode": "31107",
  "City": "KRAKOW",
  "Trasa": "KR2C"
},
{
  "Postcode": "31108",
  "City": "KRAKOW",
  "Trasa": "KR2C"
},
{
  "Postcode": "31109",
  "City": "KRAKOW",
  "Trasa": "KR2C"
},
{
  "Postcode": "31110",
  "City": "KRAKOW",
  "Trasa": "KR2C"
},
{
  "Postcode": "31111",
  "City": "KRAKOW",
  "Trasa": "KR2C"
},
{
  "Postcode": "31112",
  "City": "KRAKOW",
  "Trasa": "KR2C"
},
{
  "Postcode": "31113",
  "City": "KRAKOW",
  "Trasa": "KR2C"
},
{
  "Postcode": "31114",
  "City": "KRAKOW",
  "Trasa": "KR2C"
},
{
  "Postcode": "31115",
  "City": "KRAKOW",
  "Trasa": "KR2C"
},
{
  "Postcode": "31116",
  "City": "KRAKOW",
  "Trasa": "KR2C"
},
{
  "Postcode": "31117",
  "City": "KRAKOW",
  "Trasa": "KR2C"
},
{
  "Postcode": "31118",
  "City": "KRAKOW",
  "Trasa": "KR2C"
},
{
  "Postcode": "31120",
  "City": "KRAKOW",
  "Trasa": "KR2C"
},
{
  "Postcode": "31121",
  "City": "KRAKOW",
  "Trasa": "KR2C"
},
{
  "Postcode": "31123",
  "City": "KRAKOW",
  "Trasa": "KR2C"
},
{
  "Postcode": "31124",
  "City": "KRAKOW",
  "Trasa": "KR2C"
},
{
  "Postcode": "31126",
  "City": "KRAKOW",
  "Trasa": "KR2C"
},
{
  "Postcode": "31127",
  "City": "KRAKOW",
  "Trasa": "KR2C"
},
{
  "Postcode": "31128",
  "City": "KRAKOW",
  "Trasa": "KR2D"
},
{
  "Postcode": "31130",
  "City": "KRAKOW",
  "Trasa": "KR2D"
},
{
  "Postcode": "31131",
  "City": "KRAKOW",
  "Trasa": "KR2D"
},
{
  "Postcode": "31132",
  "City": "KRAKOW",
  "Trasa": "KR2D"
},
{
  "Postcode": "31133",
  "City": "KRAKOW",
  "Trasa": "KR2D"
},
{
  "Postcode": "31134",
  "City": "KRAKOW",
  "Trasa": "KR2D"
},
{
  "Postcode": "31135",
  "City": "KRAKOW",
  "Trasa": "KR2D"
},
{
  "Postcode": "31136",
  "City": "KRAKOW",
  "Trasa": "KR2D"
},
{
  "Postcode": "31137",
  "City": "KRAKOW",
  "Trasa": "KR2D"
},
{
  "Postcode": "31138",
  "City": "KRAKOW",
  "Trasa": "KR2D"
},
{
  "Postcode": "31139",
  "City": "KRAKOW",
  "Trasa": "KR2D"
},
{
  "Postcode": "31140",
  "City": "KRAKOW",
  "Trasa": "KR2D"
},
{
  "Postcode": "31141",
  "City": "KRAKOW",
  "Trasa": "KR2D"
},
{
  "Postcode": "31142",
  "City": "KRAKOW",
  "Trasa": "KR2D"
},
{
  "Postcode": "31143",
  "City": "KRAKOW",
  "Trasa": "KR2D"
},
{
  "Postcode": "31144",
  "City": "KRAKOW",
  "Trasa": "KR2D"
},
{
  "Postcode": "31145",
  "City": "KRAKOW",
  "Trasa": "KR2D"
},
{
  "Postcode": "31146",
  "City": "KRAKOW",
  "Trasa": "KR2D"
},
{
  "Postcode": "31147",
  "City": "KRAKOW",
  "Trasa": "KR2D"
},
{
  "Postcode": "31148",
  "City": "KRAKOW",
  "Trasa": "KR2D"
},
{
  "Postcode": "31149",
  "City": "KRAKOW",
  "Trasa": "KR2D"
},
{
  "Postcode": "31150",
  "City": "KRAKOW",
  "Trasa": "KR2D"
},
{
  "Postcode": "31151",
  "City": "KRAKOW",
  "Trasa": "KR2D"
},
{
  "Postcode": "31152",
  "City": "KRAKOW",
  "Trasa": "KR2D"
},
{
  "Postcode": "31153",
  "City": "KRAKOW",
  "Trasa": "KR2D"
},
{
  "Postcode": "31154",
  "City": "KRAKOW",
  "Trasa": "KR2D"
},
{
  "Postcode": "31155",
  "City": "KRAKOW",
  "Trasa": "KR2D"
},
{
  "Postcode": "31156",
  "City": "KRAKOW",
  "Trasa": "KR2D"
},
{
  "Postcode": "31157",
  "City": "KRAKOW",
  "Trasa": "KR2D"
},
{
  "Postcode": "31158",
  "City": "KRAKOW",
  "Trasa": "KR2D"
},
{
  "Postcode": "31159",
  "City": "KRAKOW",
  "Trasa": "KR2D"
},
{
  "Postcode": "31160",
  "City": "KRAKOW",
  "Trasa": "KR2D"
},
{
  "Postcode": "31161",
  "City": "KRAKOW",
  "Trasa": "KR2D"
},
{
  "Postcode": "31162",
  "City": "KRAKOW",
  "Trasa": "KR2D"
},
{
  "Postcode": "31200",
  "City": "KRAKOW",
  "Trasa": "KR3C"
},
{
  "Postcode": "31201",
  "City": "KRAKOW",
  "Trasa": "KR3C"
},
{
  "Postcode": "31202",
  "City": "KRAKOW",
  "Trasa": "KR3C"
},
{
  "Postcode": "31203",
  "City": "KRAKOW",
  "Trasa": "KR3C"
},
{
  "Postcode": "31207",
  "City": "KRAKOW",
  "Trasa": "KR3C"
},
{
  "Postcode": "31209",
  "City": "KRAKOW",
  "Trasa": "KR3C"
},
{
  "Postcode": "31210",
  "City": "KRAKOW",
  "Trasa": "KR3C"
},
{
  "Postcode": "31212",
  "City": "KRAKOW",
  "Trasa": "KR3C"
},
{
  "Postcode": "31213",
  "City": "KRAKOW",
  "Trasa": "KR3C"
},
{
  "Postcode": "31214",
  "City": "KRAKOW",
  "Trasa": "KR3C"
},
{
  "Postcode": "31215",
  "City": "KRAKOW",
  "Trasa": "KR3C"
},
{
  "Postcode": "31216",
  "City": "KRAKOW",
  "Trasa": "KR3C"
},
{
  "Postcode": "31217",
  "City": "KRAKOW",
  "Trasa": "KR3C"
},
{
  "Postcode": "31220",
  "City": "KRAKOW",
  "Trasa": "KR3C"
},
{
  "Postcode": "31221",
  "City": "KRAKOW",
  "Trasa": "KR3C"
},
{
  "Postcode": "31222",
  "City": "KRAKOW",
  "Trasa": "KR3C"
},
{
  "Postcode": "31223",
  "City": "KRAKOW",
  "Trasa": "KR3C"
},
{
  "Postcode": "31224",
  "City": "KRAKOW",
  "Trasa": "KR3C"
},
{
  "Postcode": "31225",
  "City": "KRAKOW",
  "Trasa": "KR3C"
},
{
  "Postcode": "31226",
  "City": "KRAKOW",
  "Trasa": "KR3C"
},
{
  "Postcode": "31227",
  "City": "KRAKOW",
  "Trasa": "KR3C"
},
{
  "Postcode": "31228",
  "City": "KRAKOW",
  "Trasa": "KR3C"
},
{
  "Postcode": "31229",
  "City": "KRAKOW",
  "Trasa": "KR3C"
},
{
  "Postcode": "31230",
  "City": "KRAKOW",
  "Trasa": "KR3C"
},
{
  "Postcode": "31231",
  "City": "KRAKOW",
  "Trasa": "KR3C"
},
{
  "Postcode": "31232",
  "City": "KRAKOW",
  "Trasa": "KR3C"
},
{
  "Postcode": "31233",
  "City": "KRAKOW",
  "Trasa": "KR3C"
},
{
  "Postcode": "31234",
  "City": "KRAKOW",
  "Trasa": "KR3C"
},
{
  "Postcode": "31235",
  "City": "KRAKOW",
  "Trasa": "KR3C"
},
{
  "Postcode": "31236",
  "City": "KRAKOW",
  "Trasa": "KR3C"
},
{
  "Postcode": "31241",
  "City": "KRAKOW",
  "Trasa": "KR3C"
},
{
  "Postcode": "31242",
  "City": "KRAKOW",
  "Trasa": "KR3C"
},
{
  "Postcode": "31261",
  "City": "KRAKOW",
  "Trasa": "KR3C"
},
{
  "Postcode": "31262",
  "City": "KRAKOW",
  "Trasa": "KR3B"
},
{
  "Postcode": "31263",
  "City": "KRAKOW",
  "Trasa": "KR3B"
},
{
  "Postcode": "31264",
  "City": "KRAKOW",
  "Trasa": "KR3B"
},
{
  "Postcode": "31265",
  "City": "KRAKOW",
  "Trasa": "KR3B"
},
{
  "Postcode": "31266",
  "City": "KRAKOW",
  "Trasa": "KR3B"
},
{
  "Postcode": "31267",
  "City": "KRAKOW",
  "Trasa": "KR3B"
},
{
  "Postcode": "31268",
  "City": "KRAKOW",
  "Trasa": "KR3B"
},
{
  "Postcode": "31269",
  "City": "KRAKOW",
  "Trasa": "KR3B"
},
{
  "Postcode": "31270",
  "City": "KRAKOW",
  "Trasa": "KR3B"
},
{
  "Postcode": "31271",
  "City": "KRAKOW",
  "Trasa": "KR3C"
},
{
  "Postcode": "31272",
  "City": "KRAKOW",
  "Trasa": "KR3C"
},
{
  "Postcode": "31273",
  "City": "KRAKOW",
  "Trasa": "KR3C"
},
{
  "Postcode": "31274",
  "City": "KRAKOW",
  "Trasa": "KR3C"
},
{
  "Postcode": "31275",
  "City": "KRAKOW",
  "Trasa": "KR3C"
},
{
  "Postcode": "31276",
  "City": "KRAKOW",
  "Trasa": "KR3C"
},
{
  "Postcode": "31277",
  "City": "KRAKOW",
  "Trasa": "KR3C"
},
{
  "Postcode": "31278",
  "City": "KRAKOW",
  "Trasa": "KR3C"
},
{
  "Postcode": "31279",
  "City": "KRAKOW",
  "Trasa": "KR3C"
},
{
  "Postcode": "31280",
  "City": "KRAKOW",
  "Trasa": "KR3C"
},
{
  "Postcode": "31300",
  "City": "KRAKOW",
  "Trasa": "KR2A"
},
{
  "Postcode": "31301",
  "City": "KRAKOW",
  "Trasa": "KR3C"
},
{
  "Postcode": "31302",
  "City": "KRAKOW",
  "Trasa": "KR3C"
},
{
  "Postcode": "31303",
  "City": "KRAKOW",
  "Trasa": "KR3C"
},
{
  "Postcode": "31305",
  "City": "KRAKOW",
  "Trasa": "KR3C"
},
{
  "Postcode": "31306",
  "City": "KRAKOW",
  "Trasa": "KR3C"
},
{
  "Postcode": "31307",
  "City": "KRAKOW",
  "Trasa": "KR3C"
},
{
  "Postcode": "31308",
  "City": "KRAKOW",
  "Trasa": "KR3C"
},
{
  "Postcode": "31309",
  "City": "KRAKOW",
  "Trasa": "KR3C"
},
{
  "Postcode": "31310",
  "City": "KRAKOW",
  "Trasa": "KR3C"
},
{
  "Postcode": "31311",
  "City": "KRAKOW",
  "Trasa": "KR3C"
},
{
  "Postcode": "31312",
  "City": "KRAKOW",
  "Trasa": "KR3C"
},
{
  "Postcode": "31313",
  "City": "KRAKOW",
  "Trasa": "KR2A"
},
{
  "Postcode": "31314",
  "City": "KRAKOW",
  "Trasa": "KR2A"
},
{
  "Postcode": "31315",
  "City": "KRAKOW",
  "Trasa": "KR2A"
},
{
  "Postcode": "31316",
  "City": "KRAKOW",
  "Trasa": "KR2A"
},
{
  "Postcode": "31317",
  "City": "KRAKOW",
  "Trasa": "KR2A"
},
{
  "Postcode": "31318",
  "City": "KRAKOW",
  "Trasa": "KR2A"
},
{
  "Postcode": "31319",
  "City": "KRAKOW",
  "Trasa": "KR2A"
},
{
  "Postcode": "31320",
  "City": "KRAKOW",
  "Trasa": "KR2A"
},
{
  "Postcode": "31321",
  "City": "KRAKOW",
  "Trasa": "KR2A"
},
{
  "Postcode": "31322",
  "City": "KRAKOW",
  "Trasa": "KR3C"
},
{
  "Postcode": "31323",
  "City": "KRAKOW",
  "Trasa": "KR3C"
},
{
  "Postcode": "31324",
  "City": "KRAKOW",
  "Trasa": "KR3C"
},
{
  "Postcode": "31325",
  "City": "KRAKOW",
  "Trasa": "KR3C"
},
{
  "Postcode": "31326",
  "City": "KRAKOW",
  "Trasa": "KR3C"
},
{
  "Postcode": "31327",
  "City": "KRAKOW",
  "Trasa": "KR3C"
},
{
  "Postcode": "31328",
  "City": "KRAKOW",
  "Trasa": "KR3C"
},
{
  "Postcode": "31329",
  "City": "KRAKOW",
  "Trasa": "KR3C"
},
{
  "Postcode": "31330",
  "City": "KRAKOW",
  "Trasa": "KR2A"
},
{
  "Postcode": "31331",
  "City": "KRAKOW",
  "Trasa": "KR3B"
},
{
  "Postcode": "31332",
  "City": "KRAKOW",
  "Trasa": "KR3B"
},
{
  "Postcode": "31333",
  "City": "KRAKOW",
  "Trasa": "KR3B"
},
{
  "Postcode": "31334",
  "City": "KRAKOW",
  "Trasa": "KR3B"
},
{
  "Postcode": "31335",
  "City": "KRAKOW",
  "Trasa": "KR3B"
},
{
  "Postcode": "31336",
  "City": "KRAKOW",
  "Trasa": "KR3B"
},
{
  "Postcode": "31337",
  "City": "KRAKOW",
  "Trasa": "KR3B"
},
{
  "Postcode": "31338",
  "City": "KRAKOW",
  "Trasa": "KR3B"
},
{
  "Postcode": "31339",
  "City": "KRAKOW",
  "Trasa": "KR3C"
},
{
  "Postcode": "31340",
  "City": "KRAKOW",
  "Trasa": "KR2A"
},
{
  "Postcode": "31341",
  "City": "KRAKOW",
  "Trasa": "KR2A"
},
{
  "Postcode": "31342",
  "City": "KRAKOW",
  "Trasa": "KR2A"
},
{
  "Postcode": "31343",
  "City": "KRAKOW",
  "Trasa": "KR2A"
},
{
  "Postcode": "31344",
  "City": "KRAKOW",
  "Trasa": "KR2A"
},
{
  "Postcode": "31345",
  "City": "KRAKOW",
  "Trasa": "KR2A"
},
{
  "Postcode": "31346",
  "City": "KRAKOW",
  "Trasa": "KR2A"
},
{
  "Postcode": "31347",
  "City": "KRAKOW",
  "Trasa": "KR2A"
},
{
  "Postcode": "31348",
  "City": "KRAKOW",
  "Trasa": "KR2A"
},
{
  "Postcode": "31349",
  "City": "KRAKOW",
  "Trasa": "KR2A"
},
{
  "Postcode": "31350",
  "City": "KRAKOW",
  "Trasa": "KR2A"
},
{
  "Postcode": "31351",
  "City": "KRAKOW",
  "Trasa": "KR2A"
},
{
  "Postcode": "31352",
  "City": "KRAKOW",
  "Trasa": "KR2A"
},
{
  "Postcode": "31353",
  "City": "KRAKOW",
  "Trasa": "KR2A"
},
{
  "Postcode": "31354",
  "City": "KRAKOW",
  "Trasa": "KR2A"
},
{
  "Postcode": "31355",
  "City": "KRAKOW",
  "Trasa": "KR2A"
},
{
  "Postcode": "31356",
  "City": "KRAKOW",
  "Trasa": "KR2A"
},
{
  "Postcode": "31357",
  "City": "KRAKOW",
  "Trasa": "KR2A"
},
{
  "Postcode": "31358",
  "City": "KRAKOW",
  "Trasa": "KR2A"
},
{
  "Postcode": "31398",
  "City": "KRAKOW",
  "Trasa": "KR2A"
},
{
  "Postcode": "31401",
  "City": "KRAKOW",
  "Trasa": "KR2D"
},
{
  "Postcode": "31403",
  "City": "KRAKOW",
  "Trasa": "KR2D"
},
{
  "Postcode": "31404",
  "City": "KRAKOW",
  "Trasa": "KR3X"
},
{
  "Postcode": "31406",
  "City": "KRAKOW",
  "Trasa": "KR3C"
},
{
  "Postcode": "31408",
  "City": "KRAKOW",
  "Trasa": "KR3C"
},
{
  "Postcode": "31409",
  "City": "KRAKOW",
  "Trasa": "KR3C"
},
{
  "Postcode": "31410",
  "City": "KRAKOW",
  "Trasa": "KR3C"
},
{
  "Postcode": "31411",
  "City": "KRAKOW",
  "Trasa": "KR3C"
},
{
  "Postcode": "31413",
  "City": "KRAKOW",
  "Trasa": "KR3X"
},
{
  "Postcode": "31414",
  "City": "KRAKOW",
  "Trasa": "KR3X"
},
{
  "Postcode": "31416",
  "City": "KRAKOW",
  "Trasa": "KR3D"
},
{
  "Postcode": "31417",
  "City": "KRAKOW",
  "Trasa": "KR3D"
},
{
  "Postcode": "31418",
  "City": "KRAKOW",
  "Trasa": "KR3C"
},
{
  "Postcode": "31419",
  "City": "KRAKOW",
  "Trasa": "KR3D"
},
{
  "Postcode": "31420",
  "City": "KRAKOW",
  "Trasa": "KR3D"
},
{
  "Postcode": "31421",
  "City": "KRAKOW",
  "Trasa": "KR3D"
},
{
  "Postcode": "31422",
  "City": "KRAKOW",
  "Trasa": "KR3D"
},
{
  "Postcode": "31423",
  "City": "KRAKOW",
  "Trasa": "KR3C"
},
{
  "Postcode": "31424",
  "City": "KRAKOW",
  "Trasa": "KR3X"
},
{
  "Postcode": "31425",
  "City": "KRAKOW",
  "Trasa": "KR3X"
},
{
  "Postcode": "31426",
  "City": "KRAKOW",
  "Trasa": "KR3X"
},
{
  "Postcode": "31428",
  "City": "KRAKOW",
  "Trasa": "KR3X"
},
{
  "Postcode": "31429",
  "City": "KRAKOW",
  "Trasa": "KR3X"
},
{
  "Postcode": "31431",
  "City": "KRAKOW",
  "Trasa": "KR3X"
},
{
  "Postcode": "31432",
  "City": "KRAKOW",
  "Trasa": "KR3X"
},
{
  "Postcode": "31435",
  "City": "KRAKOW",
  "Trasa": "KR3X"
},
{
  "Postcode": "31436",
  "City": "KRAKOW",
  "Trasa": "KR3X"
},
{
  "Postcode": "31443",
  "City": "KRAKOW",
  "Trasa": "KR3X"
},
{
  "Postcode": "31444",
  "City": "KRAKOW",
  "Trasa": "KR3X"
},
{
  "Postcode": "31445",
  "City": "KRAKOW",
  "Trasa": "KR3X"
},
{
  "Postcode": "31446",
  "City": "KRAKOW",
  "Trasa": "KR3X"
},
{
  "Postcode": "31450",
  "City": "KRAKOW",
  "Trasa": "KR3X"
},
{
  "Postcode": "31452",
  "City": "KRAKOW",
  "Trasa": "KR3X"
},
{
  "Postcode": "31455",
  "City": "KRAKOW",
  "Trasa": "KR3X"
},
{
  "Postcode": "31456",
  "City": "KRAKOW",
  "Trasa": "KR3X"
},
{
  "Postcode": "31457",
  "City": "KRAKOW",
  "Trasa": "KR3X"
},
{
  "Postcode": "31460",
  "City": "KRAKOW",
  "Trasa": "KR3X"
},
{
  "Postcode": "31462",
  "City": "KRAKOW",
  "Trasa": "KR3X"
},
{
  "Postcode": "31463",
  "City": "KRAKOW",
  "Trasa": "KR3X"
},
{
  "Postcode": "31464",
  "City": "KRAKOW",
  "Trasa": "KR3X"
},
{
  "Postcode": "31465",
  "City": "KRAKOW",
  "Trasa": "KR3X"
},
{
  "Postcode": "31466",
  "City": "KRAKOW",
  "Trasa": "KR3X"
},
{
  "Postcode": "31467",
  "City": "KRAKOW",
  "Trasa": "KR3X"
},
{
  "Postcode": "31469",
  "City": "KRAKOW",
  "Trasa": "KR3X"
},
{
  "Postcode": "31470",
  "City": "KRAKOW",
  "Trasa": "KR3X"
},
{
  "Postcode": "31471",
  "City": "KRAKOW",
  "Trasa": "KR3X"
},
{
  "Postcode": "31474",
  "City": "KRAKOW",
  "Trasa": "KR3X"
},
{
  "Postcode": "31475",
  "City": "KRAKOW",
  "Trasa": "KR3X"
},
{
  "Postcode": "31476",
  "City": "KRAKOW",
  "Trasa": "KR3D"
},
{
  "Postcode": "31477",
  "City": "KRAKOW",
  "Trasa": "KR3X"
},
{
  "Postcode": "31478",
  "City": "KRAKOW",
  "Trasa": "KR3D"
},
{
  "Postcode": "31479",
  "City": "KRAKOW",
  "Trasa": "KR3D"
},
{
  "Postcode": "31480",
  "City": "KRAKOW",
  "Trasa": "KR3D"
},
{
  "Postcode": "31481",
  "City": "KRAKOW",
  "Trasa": "KR3D"
},
{
  "Postcode": "31482",
  "City": "KRAKOW",
  "Trasa": "KR3X"
},
{
  "Postcode": "31501",
  "City": "KRAKOW",
  "Trasa": "KR2X"
},
{
  "Postcode": "31502",
  "City": "KRAKOW",
  "Trasa": "KR2X"
},
{
  "Postcode": "31503",
  "City": "KRAKOW",
  "Trasa": "KR2X"
},
{
  "Postcode": "31504",
  "City": "KRAKOW",
  "Trasa": "KR3X"
},
{
  "Postcode": "31505",
  "City": "KRAKOW",
  "Trasa": "KR3X"
},
{
  "Postcode": "31506",
  "City": "KRAKOW",
  "Trasa": "KR3X"
},
{
  "Postcode": "31508",
  "City": "KRAKOW",
  "Trasa": "KR3X"
},
{
  "Postcode": "31509",
  "City": "KRAKOW",
  "Trasa": "KR3X"
},
{
  "Postcode": "31510",
  "City": "KRAKOW",
  "Trasa": "KR3X"
},
{
  "Postcode": "31511",
  "City": "KRAKOW",
  "Trasa": "KR3X"
},
{
  "Postcode": "31512",
  "City": "KRAKOW",
  "Trasa": "KR3X"
},
{
  "Postcode": "31513",
  "City": "KRAKOW",
  "Trasa": "KR3X"
},
{
  "Postcode": "31514",
  "City": "KRAKOW",
  "Trasa": "KR3X"
},
{
  "Postcode": "31515",
  "City": "KRAKOW",
  "Trasa": "KR3X"
},
{
  "Postcode": "31516",
  "City": "KRAKOW",
  "Trasa": "KR3X"
},
{
  "Postcode": "31517",
  "City": "KRAKOW",
  "Trasa": "KR3X"
},
{
  "Postcode": "31518",
  "City": "KRAKOW",
  "Trasa": "KR3X"
},
{
  "Postcode": "31519",
  "City": "KRAKOW",
  "Trasa": "KR3X"
},
{
  "Postcode": "31520",
  "City": "KRAKOW",
  "Trasa": "KR3X"
},
{
  "Postcode": "31521",
  "City": "KRAKOW",
  "Trasa": "KR3X"
},
{
  "Postcode": "31523",
  "City": "KRAKOW",
  "Trasa": "KR3X"
},
{
  "Postcode": "31524",
  "City": "KRAKOW",
  "Trasa": "KR3X"
},
{
  "Postcode": "31525",
  "City": "KRAKOW",
  "Trasa": "KR3X"
},
{
  "Postcode": "31526",
  "City": "KRAKOW",
  "Trasa": "KR3X"
},
{
  "Postcode": "31527",
  "City": "KRAKOW",
  "Trasa": "KR3X"
},
{
  "Postcode": "31529",
  "City": "KRAKOW",
  "Trasa": "KR2X"
},
{
  "Postcode": "31530",
  "City": "KRAKOW",
  "Trasa": "KR2X"
},
{
  "Postcode": "31531",
  "City": "KRAKOW",
  "Trasa": "KR2X"
},
{
  "Postcode": "31532",
  "City": "KRAKOW",
  "Trasa": "KR2X"
},
{
  "Postcode": "31534",
  "City": "KRAKOW",
  "Trasa": "KR2X"
},
{
  "Postcode": "31535",
  "City": "KRAKOW",
  "Trasa": "KR2X"
},
{
  "Postcode": "31536",
  "City": "KRAKOW",
  "Trasa": "KR2X"
},
{
  "Postcode": "31537",
  "City": "KRAKOW",
  "Trasa": "KR2X"
},
{
  "Postcode": "31538",
  "City": "KRAKOW",
  "Trasa": "KR2X"
},
{
  "Postcode": "31539",
  "City": "KRAKOW",
  "Trasa": "KR2X"
},
{
  "Postcode": "31540",
  "City": "KRAKOW",
  "Trasa": "KR2X"
},
{
  "Postcode": "31541",
  "City": "KRAKOW",
  "Trasa": "KR3X"
},
{
  "Postcode": "31542",
  "City": "KRAKOW",
  "Trasa": "KR3X"
},
{
  "Postcode": "31543",
  "City": "KRAKOW",
  "Trasa": "KR3X"
},
{
  "Postcode": "31545",
  "City": "KRAKOW",
  "Trasa": "KR3X"
},
{
  "Postcode": "31546",
  "City": "KRAKOW",
  "Trasa": "KR3X"
},
{
  "Postcode": "31547",
  "City": "KRAKOW",
  "Trasa": "KR3X"
},
{
  "Postcode": "31548",
  "City": "KRAKOW",
  "Trasa": "KR3X"
},
{
  "Postcode": "31552",
  "City": "KRAKOW",
  "Trasa": "KR3X"
},
{
  "Postcode": "31553",
  "City": "KRAKOW",
  "Trasa": "KR3X"
},
{
  "Postcode": "31557",
  "City": "KRAKOW",
  "Trasa": "KR3X"
},
{
  "Postcode": "31559",
  "City": "KRAKOW",
  "Trasa": "KR3X"
},
{
  "Postcode": "31560",
  "City": "KRAKOW",
  "Trasa": "KR3X"
},
{
  "Postcode": "31563",
  "City": "KRAKOW",
  "Trasa": "KR3X"
},
{
  "Postcode": "31564",
  "City": "KRAKOW",
  "Trasa": "KR3X"
},
{
  "Postcode": "31566",
  "City": "KRAKOW",
  "Trasa": "KR3X"
},
{
  "Postcode": "31567",
  "City": "KRAKOW",
  "Trasa": "KR3X"
},
{
  "Postcode": "31571",
  "City": "KRAKOW",
  "Trasa": "KR3X"
},
{
  "Postcode": "31572",
  "City": "KRAKOW",
  "Trasa": "KR3X"
},
{
  "Postcode": "31573",
  "City": "KRAKOW",
  "Trasa": "KR3A"
},
{
  "Postcode": "31574",
  "City": "KRAKOW",
  "Trasa": "KR3A"
},
{
  "Postcode": "31579",
  "City": "KRAKOW",
  "Trasa": "KR3X"
},
{
  "Postcode": "31580",
  "City": "KRAKOW",
  "Trasa": "KR3X"
},
{
  "Postcode": "31581",
  "City": "KRAKOW",
  "Trasa": "KR3X"
},
{
  "Postcode": "31586",
  "City": "KRAKOW",
  "Trasa": "KR3A"
},
{
  "Postcode": "31587",
  "City": "KRAKOW",
  "Trasa": "KR3A"
},
{
  "Postcode": "31588",
  "City": "KRAKOW",
  "Trasa": "KR3A"
},
{
  "Postcode": "31589",
  "City": "KRAKOW",
  "Trasa": "KR3A"
},
{
  "Postcode": "31603",
  "City": "KRAKOW",
  "Trasa": "KR3D"
},
{
  "Postcode": "31604",
  "City": "KRAKOW",
  "Trasa": "KR3D"
},
{
  "Postcode": "31605",
  "City": "KRAKOW",
  "Trasa": "KR3D"
},
{
  "Postcode": "31606",
  "City": "KRAKOW",
  "Trasa": "KR3D"
},
{
  "Postcode": "31607",
  "City": "KRAKOW",
  "Trasa": "KR3D"
},
{
  "Postcode": "31608",
  "City": "KRAKOW",
  "Trasa": "KR3D"
},
{
  "Postcode": "31609",
  "City": "KRAKOW",
  "Trasa": "KR3D"
},
{
  "Postcode": "31610",
  "City": "KRAKOW",
  "Trasa": "KR3D"
},
{
  "Postcode": "31612",
  "City": "KRAKOW",
  "Trasa": "KR3D"
},
{
  "Postcode": "31615",
  "City": "KRAKOW",
  "Trasa": "KR3D"
},
{
  "Postcode": "31616",
  "City": "KRAKOW",
  "Trasa": "KR3D"
},
{
  "Postcode": "31617",
  "City": "KRAKOW",
  "Trasa": "KR3D"
},
{
  "Postcode": "31618",
  "City": "KRAKOW",
  "Trasa": "KR3D"
},
{
  "Postcode": "31619",
  "City": "KRAKOW",
  "Trasa": "KR3D"
},
{
  "Postcode": "31620",
  "City": "KRAKOW",
  "Trasa": "KR3D"
},
{
  "Postcode": "31621",
  "City": "KRAKOW",
  "Trasa": "KR3D"
},
{
  "Postcode": "31622",
  "City": "KRAKOW",
  "Trasa": "KR3D"
},
{
  "Postcode": "31623",
  "City": "KRAKOW",
  "Trasa": "KR3D"
},
{
  "Postcode": "31624",
  "City": "KRAKOW",
  "Trasa": "KR3D"
},
{
  "Postcode": "31625",
  "City": "KRAKOW",
  "Trasa": "KR3D"
},
{
  "Postcode": "31626",
  "City": "KRAKOW",
  "Trasa": "KR3D"
},
{
  "Postcode": "31628",
  "City": "KRAKOW",
  "Trasa": "KR3D"
},
{
  "Postcode": "31630",
  "City": "KRAKOW",
  "Trasa": "KR3D"
},
{
  "Postcode": "31634",
  "City": "KRAKOW",
  "Trasa": "KR3D"
},
{
  "Postcode": "31635",
  "City": "KRAKOW",
  "Trasa": "KR3D"
},
{
  "Postcode": "31636",
  "City": "KRAKOW",
  "Trasa": "KR3D"
},
{
  "Postcode": "31637",
  "City": "KRAKOW",
  "Trasa": "KR3D"
},
{
  "Postcode": "31638",
  "City": "KRAKOW",
  "Trasa": "KR3D"
},
{
  "Postcode": "31640",
  "City": "KRAKOW",
  "Trasa": "KR3D"
},
{
  "Postcode": "31643",
  "City": "KRAKOW",
  "Trasa": "KR3D"
},
{
  "Postcode": "31644",
  "City": "KRAKOW",
  "Trasa": "KR3D"
},
{
  "Postcode": "31651",
  "City": "KRAKOW",
  "Trasa": "KR3D"
},
{
  "Postcode": "31670",
  "City": "KRAKOW",
  "Trasa": "KR3D"
},
{
  "Postcode": "31701",
  "City": "KRAKOW",
  "Trasa": "KR3A"
},
{
  "Postcode": "31702",
  "City": "KRAKOW",
  "Trasa": "KR3A"
},
{
  "Postcode": "31703",
  "City": "KRAKOW",
  "Trasa": "KR3A"
},
{
  "Postcode": "31704",
  "City": "KRAKOW",
  "Trasa": "KR3A"
},
{
  "Postcode": "31705",
  "City": "KRAKOW",
  "Trasa": "KR3A"
},
{
  "Postcode": "31706",
  "City": "KRAKOW",
  "Trasa": "KR3A"
},
{
  "Postcode": "31707",
  "City": "KRAKOW",
  "Trasa": "KR3A"
},
{
  "Postcode": "31708",
  "City": "KRAKOW",
  "Trasa": "KR3A"
},
{
  "Postcode": "31709",
  "City": "KRAKOW",
  "Trasa": "KR3A"
},
{
  "Postcode": "31710",
  "City": "KRAKOW",
  "Trasa": "KR3A"
},
{
  "Postcode": "31711",
  "City": "KRAKOW",
  "Trasa": "KR3A"
},
{
  "Postcode": "31712",
  "City": "KRAKOW",
  "Trasa": "KR3A"
},
{
  "Postcode": "31721",
  "City": "KRAKOW",
  "Trasa": "KR3A"
},
{
  "Postcode": "31722",
  "City": "KRAKOW",
  "Trasa": "KR3A"
},
{
  "Postcode": "31723",
  "City": "KRAKOW",
  "Trasa": "KR3A"
},
{
  "Postcode": "31724",
  "City": "KRAKOW",
  "Trasa": "KR3A"
},
{
  "Postcode": "31725",
  "City": "KRAKOW",
  "Trasa": "KR3A"
},
{
  "Postcode": "31726",
  "City": "KRAKOW",
  "Trasa": "KR3A"
},
{
  "Postcode": "31727",
  "City": "KRAKOW",
  "Trasa": "KR3A"
},
{
  "Postcode": "31750",
  "City": "KRAKOW",
  "Trasa": "KR3A"
},
{
  "Postcode": "31751",
  "City": "KRAKOW",
  "Trasa": "KR3A"
},
{
  "Postcode": "31752",
  "City": "KRAKOW",
  "Trasa": "KR3A"
},
{
  "Postcode": "31753",
  "City": "KRAKOW",
  "Trasa": "KR3A"
},
{
  "Postcode": "31754",
  "City": "KRAKOW",
  "Trasa": "KR3A"
},
{
  "Postcode": "31761",
  "City": "KRAKOW",
  "Trasa": "KR3A"
},
{
  "Postcode": "31762",
  "City": "KRAKOW",
  "Trasa": "KR3A"
},
{
  "Postcode": "31763",
  "City": "KRAKOW",
  "Trasa": "KR3A"
},
{
  "Postcode": "31764",
  "City": "KRAKOW",
  "Trasa": "KR3A"
},
{
  "Postcode": "31765",
  "City": "KRAKOW",
  "Trasa": "KR3A"
},
{
  "Postcode": "31766",
  "City": "KRAKOW",
  "Trasa": "KR3A"
},
{
  "Postcode": "31767",
  "City": "KRAKOW",
  "Trasa": "KR3A"
},
{
  "Postcode": "31768",
  "City": "KRAKOW",
  "Trasa": "KR3A"
},
{
  "Postcode": "31800",
  "City": "KRAKOW",
  "Trasa": "KR3D"
},
{
  "Postcode": "31801",
  "City": "KRAKOW",
  "Trasa": "KR3D"
},
{
  "Postcode": "31802",
  "City": "KRAKOW",
  "Trasa": "KR3D"
},
{
  "Postcode": "31803",
  "City": "KRAKOW",
  "Trasa": "KR3D"
},
{
  "Postcode": "31804",
  "City": "KRAKOW",
  "Trasa": "KR3D"
},
{
  "Postcode": "31807",
  "City": "KRAKOW",
  "Trasa": "KR3D"
},
{
  "Postcode": "31808",
  "City": "KRAKOW",
  "Trasa": "KR3D"
},
{
  "Postcode": "31809",
  "City": "KRAKOW",
  "Trasa": "KR3D"
},
{
  "Postcode": "31810",
  "City": "KRAKOW",
  "Trasa": "KR3D"
},
{
  "Postcode": "31812",
  "City": "KRAKOW",
  "Trasa": "KR3D"
},
{
  "Postcode": "31813",
  "City": "KRAKOW",
  "Trasa": "KR3D"
},
{
  "Postcode": "31814",
  "City": "KRAKOW",
  "Trasa": "KR3D"
},
{
  "Postcode": "31815",
  "City": "KRAKOW",
  "Trasa": "KR3D"
},
{
  "Postcode": "31816",
  "City": "KRAKOW",
  "Trasa": "KR3D"
},
{
  "Postcode": "31818",
  "City": "KRAKOW",
  "Trasa": "KR3D"
},
{
  "Postcode": "31819",
  "City": "KRAKOW",
  "Trasa": "KR3D"
},
{
  "Postcode": "31820",
  "City": "KRAKOW",
  "Trasa": "KR3D"
},
{
  "Postcode": "31826",
  "City": "KRAKOW",
  "Trasa": "KR3D"
},
{
  "Postcode": "31827",
  "City": "KRAKOW",
  "Trasa": "KR3D"
},
{
  "Postcode": "31828",
  "City": "KRAKOW",
  "Trasa": "KR3D"
},
{
  "Postcode": "31831",
  "City": "KRAKOW",
  "Trasa": "KR3D"
},
{
  "Postcode": "31832",
  "City": "KRAKOW",
  "Trasa": "KR3D"
},
{
  "Postcode": "31833",
  "City": "KRAKOW",
  "Trasa": "KR3D"
},
{
  "Postcode": "31834",
  "City": "KRAKOW",
  "Trasa": "KR3D"
},
{
  "Postcode": "31835",
  "City": "KRAKOW",
  "Trasa": "KR3D"
},
{
  "Postcode": "31836",
  "City": "KRAKOW",
  "Trasa": "KR3D"
},
{
  "Postcode": "31837",
  "City": "KRAKOW",
  "Trasa": "KR3D"
},
{
  "Postcode": "31839",
  "City": "KRAKOW",
  "Trasa": "KR3D"
},
{
  "Postcode": "31840",
  "City": "KRAKOW",
  "Trasa": "KR3D"
},
{
  "Postcode": "31841",
  "City": "KRAKOW",
  "Trasa": "KR3D"
},
{
  "Postcode": "31842",
  "City": "KRAKOW",
  "Trasa": "KR3D"
},
{
  "Postcode": "31843",
  "City": "KRAKOW",
  "Trasa": "KR3D"
},
{
  "Postcode": "31844",
  "City": "KRAKOW",
  "Trasa": "KR3D"
},
{
  "Postcode": "31845",
  "City": "KRAKOW",
  "Trasa": "KR3D"
},
{
  "Postcode": "31850",
  "City": "KRAKOW",
  "Trasa": "KR3D"
},
{
  "Postcode": "31851",
  "City": "KRAKOW",
  "Trasa": "KR3D"
},
{
  "Postcode": "31852",
  "City": "KRAKOW",
  "Trasa": "KR3D"
},
{
  "Postcode": "31853",
  "City": "KRAKOW",
  "Trasa": "KR3D"
},
{
  "Postcode": "31854",
  "City": "KRAKOW",
  "Trasa": "KR3D"
},
{
  "Postcode": "31855",
  "City": "KRAKOW",
  "Trasa": "KR3D"
},
{
  "Postcode": "31858",
  "City": "KRAKOW",
  "Trasa": "KR3D"
},
{
  "Postcode": "31859",
  "City": "KRAKOW",
  "Trasa": "KR3D"
},
{
  "Postcode": "31860",
  "City": "KRAKOW",
  "Trasa": "KR3A"
},
{
  "Postcode": "31861",
  "City": "KRAKOW",
  "Trasa": "KR3D"
},
{
  "Postcode": "31862",
  "City": "KRAKOW",
  "Trasa": "KR3D"
},
{
  "Postcode": "31863",
  "City": "KRAKOW",
  "Trasa": "KR3D"
},
{
  "Postcode": "31864",
  "City": "KRAKOW",
  "Trasa": "KR3D"
},
{
  "Postcode": "31865",
  "City": "KRAKOW",
  "Trasa": "KR3D"
},
{
  "Postcode": "31866",
  "City": "KRAKOW",
  "Trasa": "KR3D"
},
{
  "Postcode": "31867",
  "City": "KRAKOW",
  "Trasa": "KR3D"
},
{
  "Postcode": "31868",
  "City": "KRAKOW",
  "Trasa": "KR3D"
},
{
  "Postcode": "31869",
  "City": "KRAKOW",
  "Trasa": "KR3D"
},
{
  "Postcode": "31870",
  "City": "KRAKOW",
  "Trasa": "KR3D"
},
{
  "Postcode": "31871",
  "City": "KRAKOW",
  "Trasa": "KR3D"
},
{
  "Postcode": "31872",
  "City": "KRAKOW",
  "Trasa": "KR3D"
},
{
  "Postcode": "31873",
  "City": "KRAKOW",
  "Trasa": "KR3D"
},
{
  "Postcode": "31874",
  "City": "KRAKOW",
  "Trasa": "KR3D"
},
{
  "Postcode": "31875",
  "City": "KRAKOW",
  "Trasa": "KR3D"
},
{
  "Postcode": "31876",
  "City": "KRAKOW",
  "Trasa": "KR3D"
},
{
  "Postcode": "31877",
  "City": "KRAKOW",
  "Trasa": "KR3D"
},
{
  "Postcode": "31878",
  "City": "KRAKOW",
  "Trasa": "KR3D"
},
{
  "Postcode": "31881",
  "City": "KRAKOW",
  "Trasa": "KR3X"
},
{
  "Postcode": "31901",
  "City": "KRAKOW",
  "Trasa": "KR3A"
},
{
  "Postcode": "31902",
  "City": "KRAKOW",
  "Trasa": "KR3A"
},
{
  "Postcode": "31903",
  "City": "KRAKOW",
  "Trasa": "KR3A"
},
{
  "Postcode": "31905",
  "City": "KRAKOW",
  "Trasa": "KR3A"
},
{
  "Postcode": "31906",
  "City": "KRAKOW",
  "Trasa": "KR3A"
},
{
  "Postcode": "31907",
  "City": "KRAKOW",
  "Trasa": "KR3A"
},
{
  "Postcode": "31908",
  "City": "KRAKOW",
  "Trasa": "KR3A"
},
{
  "Postcode": "31909",
  "City": "KRAKOW",
  "Trasa": "KR3A"
},
{
  "Postcode": "31910",
  "City": "KRAKOW",
  "Trasa": "KR3A"
},
{
  "Postcode": "31911",
  "City": "KRAKOW",
  "Trasa": "KR3A"
},
{
  "Postcode": "31912",
  "City": "KRAKOW",
  "Trasa": "KR3A"
},
{
  "Postcode": "31913",
  "City": "KRAKOW",
  "Trasa": "KR3A"
},
{
  "Postcode": "31914",
  "City": "KRAKOW",
  "Trasa": "KR3A"
},
{
  "Postcode": "31915",
  "City": "KRAKOW",
  "Trasa": "KR3A"
},
{
  "Postcode": "31916",
  "City": "KRAKOW",
  "Trasa": "KR3A"
},
{
  "Postcode": "31917",
  "City": "KRAKOW",
  "Trasa": "KR3A"
},
{
  "Postcode": "31918",
  "City": "KRAKOW",
  "Trasa": "KR3A"
},
{
  "Postcode": "31919",
  "City": "KRAKOW",
  "Trasa": "KR3A"
},
{
  "Postcode": "31920",
  "City": "KRAKOW",
  "Trasa": "KR3A"
},
{
  "Postcode": "31921",
  "City": "KRAKOW",
  "Trasa": "KR3A"
},
{
  "Postcode": "31922",
  "City": "KRAKOW",
  "Trasa": "KR3A"
},
{
  "Postcode": "31923",
  "City": "KRAKOW",
  "Trasa": "KR3A"
},
{
  "Postcode": "31924",
  "City": "KRAKOW",
  "Trasa": "KR3A"
},
{
  "Postcode": "31925",
  "City": "KRAKOW",
  "Trasa": "KR3A"
},
{
  "Postcode": "31926",
  "City": "KRAKOW",
  "Trasa": "KR3A"
},
{
  "Postcode": "31927",
  "City": "KRAKOW",
  "Trasa": "KR3A"
},
{
  "Postcode": "31928",
  "City": "KRAKOW",
  "Trasa": "KR3A"
},
{
  "Postcode": "31929",
  "City": "KRAKOW",
  "Trasa": "KR3A"
},
{
  "Postcode": "31930",
  "City": "KRAKOW",
  "Trasa": "KR3A"
},
{
  "Postcode": "31931",
  "City": "KRAKOW",
  "Trasa": "KR3A"
},
{
  "Postcode": "31932",
  "City": "KRAKOW",
  "Trasa": "KR3A"
},
{
  "Postcode": "31933",
  "City": "KRAKOW",
  "Trasa": "KR3A"
},
{
  "Postcode": "31934",
  "City": "KRAKOW",
  "Trasa": "KR3A"
},
{
  "Postcode": "31935",
  "City": "KRAKOW",
  "Trasa": "KR3A"
},
{
  "Postcode": "31936",
  "City": "KRAKOW",
  "Trasa": "KR3A"
},
{
  "Postcode": "31937",
  "City": "KRAKOW",
  "Trasa": "KR3A"
},
{
  "Postcode": "31938",
  "City": "KRAKOW",
  "Trasa": "KR3A"
},
{
  "Postcode": "31939",
  "City": "KRAKOW",
  "Trasa": "KR3A"
},
{
  "Postcode": "31940",
  "City": "KRAKOW",
  "Trasa": "KR3A"
},
{
  "Postcode": "31941",
  "City": "KRAKOW",
  "Trasa": "KR3A"
},
{
  "Postcode": "31943",
  "City": "KRAKOW",
  "Trasa": "KR3A"
},
{
  "Postcode": "31944",
  "City": "KRAKOW",
  "Trasa": "KR3A"
},
{
  "Postcode": "31945",
  "City": "KRAKOW",
  "Trasa": "KR3A"
},
{
  "Postcode": "31946",
  "City": "KRAKOW",
  "Trasa": "KR3A"
},
{
  "Postcode": "31947",
  "City": "KRAKOW",
  "Trasa": "KR3A"
},
{
  "Postcode": "31948",
  "City": "KRAKOW",
  "Trasa": "KR3A"
},
{
  "Postcode": "31949",
  "City": "KRAKOW",
  "Trasa": "KR3A"
},
{
  "Postcode": "31950",
  "City": "KRAKOW",
  "Trasa": "KR3A"
},
{
  "Postcode": "31951",
  "City": "KRAKOW",
  "Trasa": "KR3A"
},
{
  "Postcode": "31952",
  "City": "KRAKOW",
  "Trasa": "KR3A"
},
{
  "Postcode": "31953",
  "City": "KRAKOW",
  "Trasa": "KR3A"
},
{
  "Postcode": "31954",
  "City": "KRAKOW",
  "Trasa": "KR3A"
},
{
  "Postcode": "31955",
  "City": "KRAKOW",
  "Trasa": "KR3A"
},
{
  "Postcode": "31956",
  "City": "KRAKOW",
  "Trasa": "KR3A"
},
{
  "Postcode": "31957",
  "City": "KRAKOW",
  "Trasa": "KR3A"
},
{
  "Postcode": "31958",
  "City": "KRAKOW",
  "Trasa": "KR3A"
},
{
  "Postcode": "31959",
  "City": "KRAKOW",
  "Trasa": "KR3A"
},
{
  "Postcode": "31960",
  "City": "KRAKOW",
  "Trasa": "KR3A"
},
{
  "Postcode": "31961",
  "City": "KRAKOW",
  "Trasa": "KR3A"
},
{
  "Postcode": "31962",
  "City": "KRAKOW",
  "Trasa": "KR3A"
},
{
  "Postcode": "31963",
  "City": "KRAKOW",
  "Trasa": "KR3A"
},
{
  "Postcode": "31964",
  "City": "KRAKOW",
  "Trasa": "KR3A"
},
{
  "Postcode": "31965",
  "City": "KRAKOW",
  "Trasa": "KR3A"
},
{
  "Postcode": "31966",
  "City": "KRAKOW",
  "Trasa": "KR3A"
},
{
  "Postcode": "31967",
  "City": "KRAKOW",
  "Trasa": "KR3A"
},
{
  "Postcode": "31968",
  "City": "KRAKOW",
  "Trasa": "KR3A"
},
{
  "Postcode": "31970",
  "City": "KRAKOW",
  "Trasa": "KR3A"
},
{
  "Postcode": "31971",
  "City": "KRAKOW",
  "Trasa": "KR3A"
},
{
  "Postcode": "31972",
  "City": "KRAKOW",
  "Trasa": "KR3A"
},
{
  "Postcode": "31974",
  "City": "KRAKOW",
  "Trasa": "KR3A"
},
{
  "Postcode": "31975",
  "City": "KRAKOW",
  "Trasa": "KR3A"
},
{
  "Postcode": "31976",
  "City": "KRAKOW",
  "Trasa": "KR3A"
},
{
  "Postcode": "31977",
  "City": "KRAKOW",
  "Trasa": "KR3A"
},
{
  "Postcode": "31978",
  "City": "KRAKOW",
  "Trasa": "KR3A"
},
{
  "Postcode": "31979",
  "City": "KRAKOW",
  "Trasa": "KR3A"
},
{
  "Postcode": "31980",
  "City": "KRAKOW",
  "Trasa": "KR3A"
},
{
  "Postcode": "31981",
  "City": "KRAKOW",
  "Trasa": "KR4A"
},
{
  "Postcode": "31982",
  "City": "KRAKOW",
  "Trasa": "KR3A"
},
{
  "Postcode": "31983",
  "City": "KRAKOW",
  "Trasa": "KR4A"
},
{
  "Postcode": "31985",
  "City": "KRAKOW",
  "Trasa": "KR4A"
},
{
  "Postcode": "31987",
  "City": "KRAKOW",
  "Trasa": "KR4A"
},
{
  "Postcode": "31988",
  "City": "KRAKOW",
  "Trasa": "KR3A"
},
{
  "Postcode": "31989",
  "City": "KRAKOW",
  "Trasa": "KR4A"
},
{
  "Postcode": "31990",
  "City": "KRAKOW",
  "Trasa": "KR3A"
},
{
  "Postcode": "31992",
  "City": "KRAKOW",
  "Trasa": "KR3A"
},
{
  "Postcode": "31997",
  "City": "KRAKOW",
  "Trasa": "KR3A"
},
{
  "Postcode": "31998",
  "City": "KRAKOW",
  "Trasa": "KR4A"
},
{
  "Postcode": "31999",
  "City": "KRAKOW",
  "Trasa": "KR3A"
},
{
  "Postcode": "32420",
  "City": "KRAKUSZOWICE",
  "Trasa": "KR6X"
},
{
  "Postcode": "32095",
  "City": "KRASIENIEC STARY",
  "Trasa": "KR3B"
},
{
  "Postcode": "32095",
  "City": "KRASIENIEC ZAKUPNY",
  "Trasa": "KR3B"
},
{
  "Postcode": "33394",
  "City": "KRASNE POTOCKIE",
  "Trasa": "KR6B"
},
{
  "Postcode": "34620",
  "City": "KRASNE-LASOCICE",
  "Trasa": "KRX1"
},
{
  "Postcode": "33334",
  "City": "KROLOWA GORNA",
  "Trasa": "KR6A"
},
{
  "Postcode": "33334",
  "City": "KROLOWA POLSKA",
  "Trasa": "KR6A"
},
{
  "Postcode": "32722",
  "City": "KROLOWKA",
  "Trasa": "KRX1"
},
{
  "Postcode": "34603",
  "City": "KROSNA",
  "Trasa": "KR6B"
},
{
  "Postcode": "33325",
  "City": "KRUZLOWA NIZNA",
  "Trasa": "KR6A"
},
{
  "Postcode": "33325",
  "City": "KRUZLOWA WYZNA",
  "Trasa": "KR6A"
},
{
  "Postcode": "32060",
  "City": "KRYSPINOW",
  "Trasa": "KR1E"
},
{
  "Postcode": "32700",
  "City": "KRZECZOW",
  "Trasa": "KR5C"
},
{
  "Postcode": "32765",
  "City": "KRZECZOW",
  "Trasa": "KR5C"
},
{
  "Postcode": "32700",
  "City": "KRZECZOW (BELCH)",
  "Trasa": "KR5C"
},
{
  "Postcode": "32415",
  "City": "KRZESLAWICE",
  "Trasa": "KRX1"
},
{
  "Postcode": "32065",
  "City": "KRZESZOWICE",
  "Trasa": "KR1E"
},
{
  "Postcode": "32445",
  "City": "KRZYSZKOWICE",
  "Trasa": "KR6X"
},
{
  "Postcode": "32010",
  "City": "KRZYSZTOFORZYCE",
  "Trasa": "KR3A"
},
{
  "Postcode": "32415",
  "City": "KRZYWORZEKA",
  "Trasa": "KRX1"
},
{
  "Postcode": "32700",
  "City": "KRZYZANOWICE",
  "Trasa": "KR5C"
},
{
  "Postcode": "32420",
  "City": "KSIAZNICE",
  "Trasa": "KR6X"
},
{
  "Postcode": "32091",
  "City": "KSIAZNICZKI",
  "Trasa": "KR3B"
},
{
  "Postcode": "32031",
  "City": "KULERZOW",
  "Trasa": "KR1D"
},
{
  "Postcode": "32420",
  "City": "KUNICE",
  "Trasa": "KR6X"
},
{
  "Postcode": "33300",
  "City": "KUNOW",
  "Trasa": "KR6A"
},
{
  "Postcode": "33311",
  "City": "KUROW",
  "Trasa": "KR6A"
},
{
  "Postcode": "32415",
  "City": "KWAPINKA",
  "Trasa": "KRX1"
},
{
  "Postcode": "33156",
  "City": "LADNA",
  "Trasa": "KR5B"
},
{
  "Postcode": "32733",
  "City": "LAKTA DOLNA",
  "Trasa": "KRX1"
},
{
  "Postcode": "32731",
  "City": "LAKTA GORNA",
  "Trasa": "KRX1"
},
{
  "Postcode": "32740",
  "City": "LAPANOW",
  "Trasa": "KRX1"
},
{
  "Postcode": "32744",
  "City": "LAPCZYCA",
  "Trasa": "KR5X"
},
{
  "Postcode": "34602",
  "City": "LASKOWA",
  "Trasa": "KR6X"
},
{
  "Postcode": "33200",
  "City": "LASKOWKA CHORASKA",
  "Trasa": "KR5A"
},
{
  "Postcode": "32020",
  "City": "LAZANY",
  "Trasa": "KR5X"
},
{
  "Postcode": "32765",
  "City": "LAZY",
  "Trasa": "KR5C"
},
{
  "Postcode": "33340",
  "City": "LAZY BIEGONICKIE",
  "Trasa": "KR6B"
},
{
  "Postcode": "32020",
  "City": "LEDNICA GORNA",
  "Trasa": "KR5X"
},
{
  "Postcode": "33131",
  "City": "LEG TARNOWSKI",
  "Trasa": "KR5A"
},
{
  "Postcode": "33131",
  "City": "LEG TARNOWSKI (PARTYN)",
  "Trasa": "KR5A"
},
{
  "Postcode": "33322",
  "City": "LEKA",
  "Trasa": "KR6A"
},
{
  "Postcode": "33130",
  "City": "LEKA SIEDLECKA",
  "Trasa": "KR5A"
},
{
  "Postcode": "33156",
  "City": "LEKAWICA",
  "Trasa": "KR5B"
},
{
  "Postcode": "33157",
  "City": "LEKAWICA",
  "Trasa": "KR5B"
},
{
  "Postcode": "33112",
  "City": "LEKAWKA",
  "Trasa": "KR5B"
},
{
  "Postcode": "32720",
  "City": "LEKSANDROWA",
  "Trasa": "KR5C"
},
{
  "Postcode": "32095",
  "City": "LESIENIEC",
  "Trasa": "KR3B"
},
{
  "Postcode": "32733",
  "City": "LESZCZYNA",
  "Trasa": "KRX1"
},
{
  "Postcode": "33121",
  "City": "LETOWICE",
  "Trasa": "KR5C"
},
{
  "Postcode": "32015",
  "City": "LEZKOWICE",
  "Trasa": "KR5X"
},
{
  "Postcode": "30444",
  "City": "LIBERTOW",
  "Trasa": "KR1D"
},
{
  "Postcode": "33300",
  "City": "LIBRANTOWA",
  "Trasa": "KR6A"
},
{
  "Postcode": "34600",
  "City": "LIMANOWA",
  "Trasa": "KR6X"
},
{
  "Postcode": "34601",
  "City": "LIMANOWA",
  "Trasa": "KR6X"
},
{
  "Postcode": "34605",
  "City": "LIMANOWA",
  "Trasa": "KR6X"
},
{
  "Postcode": "32420",
  "City": "LIPLAS",
  "Trasa": "KR6X"
},
{
  "Postcode": "32090",
  "City": "LIPNA WOLA",
  "Trasa": "KR3B"
},
{
  "Postcode": "34600",
  "City": "LIPOWE",
  "Trasa": "KR6X"
},
{
  "Postcode": "33140",
  "City": "LISIA GORA",
  "Trasa": "KR5A"
},
{
  "Postcode": "32060",
  "City": "LISZKI",
  "Trasa": "KR2C"
},
{
  "Postcode": "33314",
  "City": "LOSOSINA DOLNA",
  "Trasa": "KR6B"
},
{
  "Postcode": "34600",
  "City": "LOSOSINA GORNA",
  "Trasa": "KR6X"
},
{
  "Postcode": "32010",
  "City": "LOSOSKOWICE",
  "Trasa": "KR3B"
},
{
  "Postcode": "32740",
  "City": "LUBOMIERZ",
  "Trasa": "KRX1"
},
{
  "Postcode": "32010",
  "City": "LUBORZYCA",
  "Trasa": "KR3B"
},
{
  "Postcode": "32010",
  "City": "LUCZYCE",
  "Trasa": "KR3B"
},
{
  "Postcode": "32830",
  "City": "LUKANOWICE",
  "Trasa": "KR5B"
},
{
  "Postcode": "33140",
  "City": "LUKOWA",
  "Trasa": "KR5A"
},
{
  "Postcode": "34606",
  "City": "LUKOWICA",
  "Trasa": "KR6B"
},
{
  "Postcode": "30698",
  "City": "LUSINA",
  "Trasa": "KR1D"
},
{
  "Postcode": "33322",
  "City": "LYCZANA",
  "Trasa": "KR6A"
},
{
  "Postcode": "32447",
  "City": "LYCZANKA",
  "Trasa": "KR6X"
},
{
  "Postcode": "32014",
  "City": "LYSOKANIE",
  "Trasa": "KR5X"
},
{
  "Postcode": "32010",
  "City": "MACIEJOWICE",
  "Trasa": "KR3B"
},
{
  "Postcode": "34600",
  "City": "MAKOWICA",
  "Trasa": "KR6X"
},
{
  "Postcode": "32002",
  "City": "MALA WIES",
  "Trasa": "KR5X"
},
{
  "Postcode": "33395",
  "City": "MALA WIES",
  "Trasa": "KR6B"
},
{
  "Postcode": "33393",
  "City": "MARCINKOWICE",
  "Trasa": "KR6B"
},
{
  "Postcode": "32010",
  "City": "MARSZOWICE",
  "Trasa": "KR3B"
},
{
  "Postcode": "32420",
  "City": "MARSZOWICE",
  "Trasa": "KR6X"
},
{
  "Postcode": "32091",
  "City": "MASLOMIACA",
  "Trasa": "KR3B"
},
{
  "Postcode": "32095",
  "City": "MASZKOW",
  "Trasa": "KR3B"
},
{
  "Postcode": "34654",
  "City": "MECINA",
  "Trasa": "KR6X"
},
{
  "Postcode": "34655",
  "City": "MECINA",
  "Trasa": "KR6X"
},
{
  "Postcode": "32091",
  "City": "MICHALOWICE",
  "Trasa": "KR3B"
},
{
  "Postcode": "32415",
  "City": "MIERZEN",
  "Trasa": "KRX1"
},
{
  "Postcode": "32020",
  "City": "MIETNIOW",
  "Trasa": "KR5X"
},
{
  "Postcode": "33121",
  "City": "MIKOLAJOWICE",
  "Trasa": "KR5B"
},
{
  "Postcode": "32090",
  "City": "MILOCICE",
  "Trasa": "KR3B"
},
{
  "Postcode": "32046",
  "City": "MINOGA",
  "Trasa": "KR3B"
},
{
  "Postcode": "32091",
  "City": "MLODZIEJOWICE",
  "Trasa": "KR3B"
},
{
  "Postcode": "32064",
  "City": "MLYNKA",
  "Trasa": "KR1E"
},
{
  "Postcode": "34600",
  "City": "MLYNNE",
  "Trasa": "KR6X"
},
{
  "Postcode": "32084",
  "City": "MNIKOW",
  "Trasa": "KR1E"
},
{
  "Postcode": "32084",
  "City": "MNIKOW (BACZYN)",
  "Trasa": "KR1E"
},
{
  "Postcode": "32085",
  "City": "MODLNICA",
  "Trasa": "KR1E"
},
{
  "Postcode": "32085",
  "City": "MODLNICZKA",
  "Trasa": "KR1E"
},
{
  "Postcode": "32093",
  "City": "MODLNICZKA",
  "Trasa": "KR1E"
},
{
  "Postcode": "32031",
  "City": "MOGILANY",
  "Trasa": "KR1D"
},
{
  "Postcode": "33326",
  "City": "MOGILNO",
  "Trasa": "KR6A"
},
{
  "Postcode": "32800",
  "City": "MOKRZYSKA",
  "Trasa": "KR5C"
},
{
  "Postcode": "32060",
  "City": "MORAWICA",
  "Trasa": "KR1E"
},
{
  "Postcode": "32084",
  "City": "MORAWICA",
  "Trasa": "KR1E"
},
{
  "Postcode": "34600",
  "City": "MORDARKA",
  "Trasa": "KR6X"
},
{
  "Postcode": "33240",
  "City": "MORZYCHNA",
  "Trasa": "KR5A"
},
{
  "Postcode": "32744",
  "City": "MOSZCZENICA",
  "Trasa": "KR5X"
},
{
  "Postcode": "34620",
  "City": "MSTOW",
  "Trasa": "KRX1"
},
{
  "Postcode": "33334",
  "City": "MSZALNICA",
  "Trasa": "KR6A"
},
{
  "Postcode": "32722",
  "City": "MUCHOWKA",
  "Trasa": "KRX1"
},
{
  "Postcode": "32723",
  "City": "MUCHOWKA",
  "Trasa": "KRX1"
},
{
  "Postcode": "32090",
  "City": "MUNIAKOWICE",
  "Trasa": "KR3B"
},
{
  "Postcode": "32400",
  "City": "MYSLENICE",
  "Trasa": "KR6X"
},
{
  "Postcode": "32401",
  "City": "MYSLENICE",
  "Trasa": "KR6X"
},
{
  "Postcode": "32403",
  "City": "MYSLENICE",
  "Trasa": "KR6X"
},
{
  "Postcode": "32400",
  "City": "MYSLENICE (CHELM)",
  "Trasa": "KR6X"
},
{
  "Postcode": "33334",
  "City": "MYSTKOW",
  "Trasa": "KR6A"
},
{
  "Postcode": "32095",
  "City": "NARAMA",
  "Trasa": "KR3B"
},
{
  "Postcode": "33300",
  "City": "NASCISZOWA",
  "Trasa": "KR6A"
},
{
  "Postcode": "33335",
  "City": "NAWOJOWA",
  "Trasa": "KR6A"
},
{
  "Postcode": "32065",
  "City": "NAWOJOWA GORA",
  "Trasa": "KR1E"
},
{
  "Postcode": "32043",
  "City": "NIEBYLA",
  "Trasa": "KR3B"
},
{
  "Postcode": "33322",
  "City": "NIECEW",
  "Trasa": "KR6A"
},
{
  "Postcode": "33240",
  "City": "NIECIECZA",
  "Trasa": "KR5A"
},
{
  "Postcode": "33200",
  "City": "NIECZAJNA GORNA",
  "Trasa": "KR5A"
},
{
  "Postcode": "33132",
  "City": "NIEDOMICE",
  "Trasa": "KR5A"
},
{
  "Postcode": "32090",
  "City": "NIEDZWIEDZ",
  "Trasa": "KR3B"
},
{
  "Postcode": "32064",
  "City": "NIEGOSZOWICE",
  "Trasa": "KR1E"
},
{
  "Postcode": "32420",
  "City": "NIEGOWIC",
  "Trasa": "KR6X"
},
{
  "Postcode": "32064",
  "City": "NIELEPICE",
  "Trasa": "KR1E"
},
{
  "Postcode": "30900",
  "City": "NIEPOLOMICE",
  "Trasa": "KR5X"
},
{
  "Postcode": "32005",
  "City": "NIEPOLOMICE",
  "Trasa": "KR5X"
},
{
  "Postcode": "32700",
  "City": "NIEPRZESNIA",
  "Trasa": "KR5C"
},
{
  "Postcode": "32744",
  "City": "NIESZKOWICE MALE",
  "Trasa": "KR5X"
},
{
  "Postcode": "32700",
  "City": "NIESZKOWICE WIELKIE",
  "Trasa": "KR5C"
},
{
  "Postcode": "32420",
  "City": "NIEWIAROW",
  "Trasa": "KR6X"
},
{
  "Postcode": "32410",
  "City": "NIEZDOW",
  "Trasa": "KR6X"
},
{
  "Postcode": "32420",
  "City": "NIEZNANOWICE",
  "Trasa": "KR6X"
},
{
  "Postcode": "33395",
  "City": "NISKOWA",
  "Trasa": "KR6B"
},
{
  "Postcode": "33130",
  "City": "NIWKA",
  "Trasa": "KR5A"
},
{
  "Postcode": "32420",
  "City": "NIZOWA",
  "Trasa": "KR6X"
},
{
  "Postcode": "33151",
  "City": "NOWA JASTRZABKA",
  "Trasa": "KR5A"
},
{
  "Postcode": "32046",
  "City": "NOWA WIES",
  "Trasa": "KR3B"
},
{
  "Postcode": "32410",
  "City": "NOWA WIES",
  "Trasa": "KR6X"
},
{
  "Postcode": "34652",
  "City": "NOWE RYBIE",
  "Trasa": "KRX1"
},
{
  "Postcode": "33112",
  "City": "NOWODWORZE",
  "Trasa": "KR5B"
},
{
  "Postcode": "33300",
  "City": "NOWY SACZ",
  "Trasa": "KR6A"
},
{
  "Postcode": "33302",
  "City": "NOWY SACZ",
  "Trasa": "KR6A"
},
{
  "Postcode": "33303",
  "City": "NOWY SACZ",
  "Trasa": "KR6A"
},
{
  "Postcode": "33304",
  "City": "NOWY SACZ",
  "Trasa": "KR6A"
},
{
  "Postcode": "33305",
  "City": "NOWY SACZ",
  "Trasa": "KR6A"
},
{
  "Postcode": "33306",
  "City": "NOWY SACZ",
  "Trasa": "KR6A"
},
{
  "Postcode": "33307",
  "City": "NOWY SACZ",
  "Trasa": "KR6A"
},
{
  "Postcode": "33309",
  "City": "NOWY SACZ",
  "Trasa": "KR6A"
},
{
  "Postcode": "33310",
  "City": "NOWY SACZ",
  "Trasa": "KR6A"
},
{
  "Postcode": "32720",
  "City": "NOWY WISNICZ",
  "Trasa": "KR5C"
},
{
  "Postcode": "32003",
  "City": "OCHMANOW",
  "Trasa": "KR5X"
},
{
  "Postcode": "32040",
  "City": "OCHOJNO",
  "Trasa": "KR1D"
},
{
  "Postcode": "33240",
  "City": "ODPORYSZOW",
  "Trasa": "KR5A"
},
{
  "Postcode": "33241",
  "City": "ODPORYSZOW",
  "Trasa": "KR5A"
},
{
  "Postcode": "32125",
  "City": "ODWISLE",
  "Trasa": "KR4A"
},
{
  "Postcode": "32800",
  "City": "OKOCIM",
  "Trasa": "KR5C"
},
{
  "Postcode": "32720",
  "City": "OLCHAWA",
  "Trasa": "KR5C"
},
{
  "Postcode": "33200",
  "City": "OLESNICA",
  "Trasa": "KR5A"
},
{
  "Postcode": "32040",
  "City": "OLSZOWICE",
  "Trasa": "KR6X"
},
{
  "Postcode": "32090",
  "City": "ORLOW",
  "Trasa": "KR3B"
},
{
  "Postcode": "32400",
  "City": "OSIECZANY",
  "Trasa": "KR6X"
},
{
  "Postcode": "33122",
  "City": "OSTROW",
  "Trasa": "KR5A"
},
{
  "Postcode": "32765",
  "City": "OSTROW KROLEWSKI",
  "Trasa": "KR5C"
},
{
  "Postcode": "32088",
  "City": "OWCZARY",
  "Trasa": "KR3B"
},
{
  "Postcode": "34600",
  "City": "PASIERBIEC",
  "Trasa": "KR6X"
},
{
  "Postcode": "33326",
  "City": "PASZYN",
  "Trasa": "KR6A"
},
{
  "Postcode": "33100",
  "City": "PAWEZOW",
  "Trasa": "KR5A"
},
{
  "Postcode": "32020",
  "City": "PAWLIKOWICE",
  "Trasa": "KR5X"
},
{
  "Postcode": "32087",
  "City": "PEKOWICE",
  "Trasa": "KR3B"
},
{
  "Postcode": "33300",
  "City": "PIATKOWA",
  "Trasa": "KR6A"
},
{
  "Postcode": "32060",
  "City": "PIEKARY",
  "Trasa": "KR2C"
},
{
  "Postcode": "34650",
  "City": "PIEKIELKO",
  "Trasa": "KR6X"
},
{
  "Postcode": "32091",
  "City": "PIELGRZYMOWICE",
  "Trasa": "KR3B"
},
{
  "Postcode": "32420",
  "City": "PIERZCHOW",
  "Trasa": "KR6X"
},
{
  "Postcode": "32010",
  "City": "PIETRZEJOWICE",
  "Trasa": "KR3A"
},
{
  "Postcode": "34654",
  "City": "PISARZOWA",
  "Trasa": "KR6X"
},
{
  "Postcode": "32125",
  "City": "POBIEDNIK MALY",
  "Trasa": "KR4A"
},
{
  "Postcode": "32125",
  "City": "POBIEDNIK WIELKI",
  "Trasa": "KR4A"
},
{
  "Postcode": "33386",
  "City": "PODEGRODZIE",
  "Trasa": "KR6B"
},
{
  "Postcode": "33240",
  "City": "PODLESIE DEBOWE",
  "Trasa": "KR5A"
},
{
  "Postcode": "32003",
  "City": "PODLEZE",
  "Trasa": "KR5X"
},
{
  "Postcode": "34650",
  "City": "PODLOPIEN",
  "Trasa": "KR6X"
},
{
  "Postcode": "32420",
  "City": "PODOLANY",
  "Trasa": "KR6X"
},
{
  "Postcode": "33386",
  "City": "PODRZECZE",
  "Trasa": "KR6B"
},
{
  "Postcode": "32020",
  "City": "PODSTOLICE",
  "Trasa": "KR5X"
},
{
  "Postcode": "34623",
  "City": "POGORZANY",
  "Trasa": "KRX1"
},
{
  "Postcode": "32700",
  "City": "POGWIZDOW",
  "Trasa": "KR5C"
},
{
  "Postcode": "32400",
  "City": "POLANKA",
  "Trasa": "KR6X"
},
{
  "Postcode": "32090",
  "City": "POLANOWICE",
  "Trasa": "KR3B"
},
{
  "Postcode": "33331",
  "City": "POLNA",
  "Trasa": "KR6A"
},
{
  "Postcode": "32720",
  "City": "POLOM DUZY",
  "Trasa": "KR5C"
},
{
  "Postcode": "34642",
  "City": "PORABKA",
  "Trasa": "KRX1"
},
{
  "Postcode": "32046",
  "City": "POREBA LASKOWSKA",
  "Trasa": "KR3B"
},
{
  "Postcode": "33112",
  "City": "POREBA RADLNA",
  "Trasa": "KR5B"
},
{
  "Postcode": "32800",
  "City": "POREBA SPYTKOWSKA",
  "Trasa": "KR5C"
},
{
  "Postcode": "33326",
  "City": "POSADOWA MOGILSKA",
  "Trasa": "KR6A"
},
{
  "Postcode": "32095",
  "City": "POSKWITOW",
  "Trasa": "KR3B"
},
{
  "Postcode": "32415",
  "City": "POZNACHOWICE GORNE",
  "Trasa": "KRX1"
},
{
  "Postcode": "32089",
  "City": "PRADNIK KORZKIEWSKI",
  "Trasa": "KR3B"
},
{
  "Postcode": "32090",
  "City": "PRANDOCIN",
  "Trasa": "KR3B"
},
{
  "Postcode": "32090",
  "City": "PRANDOCIN-ILY",
  "Trasa": "KR3B"
},
{
  "Postcode": "32090",
  "City": "PRANDOCIN-WYSIOLEK",
  "Trasa": "KR3B"
},
{
  "Postcode": "32700",
  "City": "PROSZOWKI",
  "Trasa": "KR5C"
},
{
  "Postcode": "32010",
  "City": "PRUSY",
  "Trasa": "KR3B"
},
{
  "Postcode": "32020",
  "City": "PRZEBIECZANY",
  "Trasa": "KR5X"
},
{
  "Postcode": "34625",
  "City": "PRZENOSZA",
  "Trasa": "KRX1"
},
{
  "Postcode": "32095",
  "City": "PRZESTANSKO",
  "Trasa": "KR3B"
},
{
  "Postcode": "32046",
  "City": "PRZYBYSLAWICE",
  "Trasa": "KR3B"
},
{
  "Postcode": "32088",
  "City": "PRZYBYSLAWICE",
  "Trasa": "KR3B"
},
{
  "Postcode": "33333",
  "City": "PTASZKOWA",
  "Trasa": "KR6A"
},
{
  "Postcode": "32091",
  "City": "RACIBOROWICE",
  "Trasa": "KR3B"
},
{
  "Postcode": "32091",
  "City": "RACIBOROWICE (PRAWDA)",
  "Trasa": "KR3B"
},
{
  "Postcode": "32020",
  "City": "RACIBORSKO",
  "Trasa": "KR5X"
},
{
  "Postcode": "32415",
  "City": "RACIECHOWICE",
  "Trasa": "KRX1"
},
{
  "Postcode": "32060",
  "City": "RACZNA",
  "Trasa": "KR2C"
},
{
  "Postcode": "33112",
  "City": "RADLNA",
  "Trasa": "KR5B"
},
{
  "Postcode": "33130",
  "City": "RADLOW",
  "Trasa": "KR5A"
},
{
  "Postcode": "32090",
  "City": "RATAJOW",
  "Trasa": "KR3B"
},
{
  "Postcode": "32010",
  "City": "RAWALOWICE",
  "Trasa": "KR3B"
},
{
  "Postcode": "32732",
  "City": "RDZAWA",
  "Trasa": "KRX1"
},
{
  "Postcode": "33393",
  "City": "RDZIOSTOW",
  "Trasa": "KR6B"
},
{
  "Postcode": "38312",
  "City": "ROPA",
  "Trasa": "KR6A"
},
{
  "Postcode": "38300",
  "City": "ROPICA POLSKA",
  "Trasa": "KR6A"
},
{
  "Postcode": "32731",
  "City": "ROZDZIELE",
  "Trasa": "KRX1"
},
{
  "Postcode": "32020",
  "City": "ROZNOWA",
  "Trasa": "KR5X"
},
{
  "Postcode": "32064",
  "City": "RUDAWA",
  "Trasa": "KR1E"
},
{
  "Postcode": "32080",
  "City": "RUDAWA",
  "Trasa": "KR1E"
},
{
  "Postcode": "33122",
  "City": "RUDKA",
  "Trasa": "KR5A"
},
{
  "Postcode": "32410",
  "City": "RUDNIK",
  "Trasa": "KR6X"
},
{
  "Postcode": "32125",
  "City": "RUDNO GORNE",
  "Trasa": "KR4A"
},
{
  "Postcode": "34652",
  "City": "RUPNIOW",
  "Trasa": "KRX1"
},
{
  "Postcode": "30199",
  "City": "RZASKA",
  "Trasa": "KR1E"
},
{
  "Postcode": "32046",
  "City": "RZEPLIN",
  "Trasa": "KR3B"
},
{
  "Postcode": "32040",
  "City": "RZESZOTARY",
  "Trasa": "KR1D"
},
{
  "Postcode": "32765",
  "City": "RZEZAWA",
  "Trasa": "KR5C"
},
{
  "Postcode": "34620",
  "City": "SADEK",
  "Trasa": "KRX1"
},
{
  "Postcode": "32010",
  "City": "SADOWIE",
  "Trasa": "KR3B"
},
{
  "Postcode": "33130",
  "City": "SANOKA",
  "Trasa": "KR5A"
},
{
  "Postcode": "32414",
  "City": "SAWA",
  "Trasa": "KRX1"
},
{
  "Postcode": "34603",
  "City": "SECHNA",
  "Trasa": "KR6X"
},
{
  "Postcode": "32091",
  "City": "SIEBOROWICE",
  "Trasa": "KR3B"
},
{
  "Postcode": "32095",
  "City": "SIECIECHOWICE",
  "Trasa": "KR3B"
},
{
  "Postcode": "33121",
  "City": "SIECIECHOWICE",
  "Trasa": "KR5B"
},
{
  "Postcode": "33322",
  "City": "SIEDLCE",
  "Trasa": "KR6A"
},
{
  "Postcode": "32744",
  "City": "SIEDLEC",
  "Trasa": "KR5X"
},
{
  "Postcode": "33130",
  "City": "SIEDLEC",
  "Trasa": "KR5A"
},
{
  "Postcode": "32447",
  "City": "SIEPRAW",
  "Trasa": "KR6X"
},
{
  "Postcode": "33240",
  "City": "SIERADZA",
  "Trasa": "KR5A"
},
{
  "Postcode": "33240",
  "City": "SIERADZA (FIUK)",
  "Trasa": "KR5A"
},
{
  "Postcode": "32410",
  "City": "SIERAKOW",
  "Trasa": "KR6X"
},
{
  "Postcode": "32020",
  "City": "SIERCZA",
  "Trasa": "KR5X"
},
{
  "Postcode": "33330",
  "City": "SIOLKOWA",
  "Trasa": "KR6A"
},
{
  "Postcode": "32043",
  "City": "SKALA",
  "Trasa": "KR3B"
},
{
  "Postcode": "32050",
  "City": "SKAWINA",
  "Trasa": "KR1D"
},
{
  "Postcode": "32054",
  "City": "SKAWINA",
  "Trasa": "KR1D"
},
{
  "Postcode": "32010",
  "City": "SKRZESZOWICE",
  "Trasa": "KR3B"
},
{
  "Postcode": "34625",
  "City": "SKRZYDLNA",
  "Trasa": "KRX1"
},
{
  "Postcode": "32410",
  "City": "SKRZYNKA",
  "Trasa": "KR6X"
},
{
  "Postcode": "33156",
  "City": "SKRZYSZOW",
  "Trasa": "KR5B"
},
{
  "Postcode": "32020",
  "City": "SLAWKOWICE",
  "Trasa": "KR5X"
},
{
  "Postcode": "32020",
  "City": "SLEDZIEJOWICE",
  "Trasa": "KR4A"
},
{
  "Postcode": "32005",
  "City": "SLOMIROG",
  "Trasa": "KR5X"
},
{
  "Postcode": "32700",
  "City": "SLOMKA",
  "Trasa": "KR5C"
},
{
  "Postcode": "32090",
  "City": "SLOMNIKI",
  "Trasa": "KR3B"
},
{
  "Postcode": "33322",
  "City": "SLOWIKOWA",
  "Trasa": "KR6A"
},
{
  "Postcode": "34620",
  "City": "SLUPIA",
  "Trasa": "KRX1"
},
{
  "Postcode": "33140",
  "City": "SMIGNO",
  "Trasa": "KR5A"
},
{
  "Postcode": "32090",
  "City": "SMROKOW",
  "Trasa": "KR3B"
},
{
  "Postcode": "32043",
  "City": "SOBIESEKI",
  "Trasa": "KR3B"
},
{
  "Postcode": "32742",
  "City": "SOBOLOW",
  "Trasa": "KRX1"
},
{
  "Postcode": "34600",
  "City": "SOWLINY",
  "Trasa": "KR6X"
},
{
  "Postcode": "33386",
  "City": "STADLA",
  "Trasa": "KR6B"
},
{
  "Postcode": "32410",
  "City": "STADNIKI",
  "Trasa": "KR6X"
},
{
  "Postcode": "32005",
  "City": "STANIATKI",
  "Trasa": "KR5X"
},
{
  "Postcode": "32015",
  "City": "STANISLAWICE",
  "Trasa": "KR5C"
},
{
  "Postcode": "33330",
  "City": "STARA WIES",
  "Trasa": "KR6A"
},
{
  "Postcode": "34600",
  "City": "STARA WIES",
  "Trasa": "KR6X"
},
{
  "Postcode": "34652",
  "City": "STARE RYBIE",
  "Trasa": "KRX1"
},
{
  "Postcode": "33151",
  "City": "STARE ZUKOWICE",
  "Trasa": "KR5A"
},
{
  "Postcode": "33340",
  "City": "STARY SACZ",
  "Trasa": "KR6B"
},
{
  "Postcode": "32720",
  "City": "STARY WISNICZ",
  "Trasa": "KR5C"
},
{
  "Postcode": "32410",
  "City": "STOJOWICE",
  "Trasa": "KR6X"
},
{
  "Postcode": "32046",
  "City": "STOKI",
  "Trasa": "KR3B"
},
{
  "Postcode": "32742",
  "City": "STRADOMKA",
  "Trasa": "KRX1"
},
{
  "Postcode": "32125",
  "City": "STREGOBORZYCE",
  "Trasa": "KR4A"
},
{
  "Postcode": "32125",
  "City": "STREGOBORZYCE (WYGNANOW)",
  "Trasa": "KR4A"
},
{
  "Postcode": "34625",
  "City": "STROZA",
  "Trasa": "KRX1"
},
{
  "Postcode": "33331",
  "City": "STROZE",
  "Trasa": "KR6A"
},
{
  "Postcode": "38300",
  "City": "STROZOWKA",
  "Trasa": "KR6A"
},
{
  "Postcode": "32002",
  "City": "STRUMIANY",
  "Trasa": "KR4A"
},
{
  "Postcode": "32420",
  "City": "STRYSZOWA",
  "Trasa": "KR6X"
},
{
  "Postcode": "34603",
  "City": "STRZESZYCE",
  "Trasa": "KR6B"
},
{
  "Postcode": "32005",
  "City": "SUCHORABA",
  "Trasa": "KR5X"
},
{
  "Postcode": "32852",
  "City": "SUFCZYN",
  "Trasa": "KR5C"
},
{
  "Postcode": "32856",
  "City": "SUFCZYN",
  "Trasa": "KR5C"
},
{
  "Postcode": "32010",
  "City": "SULECHOW",
  "Trasa": "KR3B"
},
{
  "Postcode": "32020",
  "City": "SULKOW",
  "Trasa": "KR5X"
},
{
  "Postcode": "32095",
  "City": "SULKOWICE",
  "Trasa": "KR3B"
},
{
  "Postcode": "32020",
  "City": "SULOW",
  "Trasa": "KR5X"
},
{
  "Postcode": "32420",
  "City": "SWIATNIKI DOLNE",
  "Trasa": "KR5X"
},
{
  "Postcode": "32040",
  "City": "SWIATNIKI GORNE",
  "Trasa": "KR1D"
},
{
  "Postcode": "33312",
  "City": "SWIDNIK",
  "Trasa": "KR6B"
},
{
  "Postcode": "34606",
  "City": "SWIDNIK",
  "Trasa": "KR6B"
},
{
  "Postcode": "32043",
  "City": "SWINCZOW",
  "Trasa": "KR3B"
},
{
  "Postcode": "33395",
  "City": "SWINIARSKO",
  "Trasa": "KR6B"
},
{
  "Postcode": "32020",
  "City": "SYGNECZOW",
  "Trasa": "KR5X"
},
{
  "Postcode": "32014",
  "City": "SZAROW",
  "Trasa": "KR5X"
},
{
  "Postcode": "33200",
  "City": "SZARWARK",
  "Trasa": "KR5A"
},
{
  "Postcode": "32090",
  "City": "SZCZEPANOWICE",
  "Trasa": "KR3B"
},
{
  "Postcode": "32043",
  "City": "SZCZODRKOWICE",
  "Trasa": "KR3B"
},
{
  "Postcode": "32083",
  "City": "SZCZYGLICE",
  "Trasa": "KR1E"
},
{
  "Postcode": "32020",
  "City": "SZCZYGLOW",
  "Trasa": "KR5X"
},
{
  "Postcode": "34623",
  "City": "SZCZYRZYC",
  "Trasa": "KRX1"
},
{
  "Postcode": "32420",
  "City": "SZCZYTNIKI",
  "Trasa": "KR5X"
},
{
  "Postcode": "32085",
  "City": "SZYCE",
  "Trasa": "KR1E"
},
{
  "Postcode": "34620",
  "City": "SZYK",
  "Trasa": "KRX1"
},
{
  "Postcode": "38311",
  "City": "SZYMBARK",
  "Trasa": "KR6A"
},
{
  "Postcode": "32015",
  "City": "TARGOWISKO",
  "Trasa": "KR5X"
},
{
  "Postcode": "32741",
  "City": "TARNAWA",
  "Trasa": "KRX1"
},
{
  "Postcode": "33100",
  "City": "TARNOW",
  "Trasa": "KR5B"
},
{
  "Postcode": "33101",
  "City": "TARNOW",
  "Trasa": "KR5B"
},
{
  "Postcode": "33102",
  "City": "TARNOW",
  "Trasa": "KR5B"
},
{
  "Postcode": "33103",
  "City": "TARNOW",
  "Trasa": "KR5B"
},
{
  "Postcode": "33104",
  "City": "TARNOW",
  "Trasa": "KR5B"
},
{
  "Postcode": "33105",
  "City": "TARNOW",
  "Trasa": "KR5B"
},
{
  "Postcode": "33106",
  "City": "TARNOW",
  "Trasa": "KR5B"
},
{
  "Postcode": "33108",
  "City": "TARNOW",
  "Trasa": "KR5B"
},
{
  "Postcode": "33109",
  "City": "TARNOW",
  "Trasa": "KR5B"
},
{
  "Postcode": "33110",
  "City": "TARNOW",
  "Trasa": "KR5B"
},
{
  "Postcode": "33110",
  "City": "TARNOWIEC",
  "Trasa": "KR5B"
},
{
  "Postcode": "33112",
  "City": "TARNOWIEC",
  "Trasa": "KR5B"
},
{
  "Postcode": "33312",
  "City": "TEGOBORZE",
  "Trasa": "KR6B"
},
{
  "Postcode": "32020",
  "City": "TOMASZKOWICE",
  "Trasa": "KR5X"
},
{
  "Postcode": "32085",
  "City": "TOMASZOWICE",
  "Trasa": "KR1E"
},
{
  "Postcode": "32020",
  "City": "TRABKI",
  "Trasa": "KR5X"
},
{
  "Postcode": "32090",
  "City": "TRATNOWICE",
  "Trasa": "KR3B"
},
{
  "Postcode": "32087",
  "City": "TROJANOWICE",
  "Trasa": "KR3B"
},
{
  "Postcode": "32125",
  "City": "TROPISZOW",
  "Trasa": "KR4A"
},
{
  "Postcode": "32733",
  "City": "TRZCIANA",
  "Trasa": "KRX1"
},
{
  "Postcode": "33395",
  "City": "TRZETRZEWINA",
  "Trasa": "KR6B"
},
{
  "Postcode": "33322",
  "City": "TRZYCIERZ",
  "Trasa": "KR6A"
},
{
  "Postcode": "32863",
  "City": "TWORKOWA",
  "Trasa": "KR6B"
},
{
  "Postcode": "34650",
  "City": "TYMBARK",
  "Trasa": "KR6X"
},
{
  "Postcode": "32863",
  "City": "TYMOWA",
  "Trasa": "KR6B"
},
{
  "Postcode": "33311",
  "City": "UBIAD",
  "Trasa": "KR6A"
},
{
  "Postcode": "32740",
  "City": "UBRZEZ",
  "Trasa": "KRX1"
},
{
  "Postcode": "34603",
  "City": "UJANOWICE",
  "Trasa": "KR6B"
},
{
  "Postcode": "32080",
  "City": "UJAZD",
  "Trasa": "KR1E"
},
{
  "Postcode": "32733",
  "City": "UJAZD",
  "Trasa": "KRX1"
},
{
  "Postcode": "32865",
  "City": "USZEW",
  "Trasa": "KR6B"
},
{
  "Postcode": "32090",
  "City": "WAGANOWICE",
  "Trasa": "KR3B"
},
{
  "Postcode": "34600",
  "City": "WALOWA GORA",
  "Trasa": "KR6X"
},
{
  "Postcode": "32125",
  "City": "WAWRZENCZYCE",
  "Trasa": "KR4A"
},
{
  "Postcode": "32086",
  "City": "WEGRZCE",
  "Trasa": "KR3B"
},
{
  "Postcode": "32087",
  "City": "WEGRZCE",
  "Trasa": "KR3B"
},
{
  "Postcode": "32002",
  "City": "WEGRZCE WIELKIE",
  "Trasa": "KR5X"
},
{
  "Postcode": "32090",
  "City": "WESOLA",
  "Trasa": "KR3B"
},
{
  "Postcode": "32090",
  "City": "WEZEROW",
  "Trasa": "KR3B"
},
{
  "Postcode": "32420",
  "City": "WIATOWICE",
  "Trasa": "KR6X"
},
{
  "Postcode": "32095",
  "City": "WIDOMA",
  "Trasa": "KR3B"
},
{
  "Postcode": "32082",
  "City": "WIECKOWICE",
  "Trasa": "KR1E"
},
{
  "Postcode": "32091",
  "City": "WIECLAWICE DWORSKIE",
  "Trasa": "KR3B"
},
{
  "Postcode": "32091",
  "City": "WIECLAWICE STARE",
  "Trasa": "KR3B"
},
{
  "Postcode": "32020",
  "City": "WIELICZKA",
  "Trasa": "KR5X"
},
{
  "Postcode": "32021",
  "City": "WIELICZKA",
  "Trasa": "KR5X"
},
{
  "Postcode": "32022",
  "City": "WIELICZKA",
  "Trasa": "KR5X"
},
{
  "Postcode": "32089",
  "City": "WIELKA WIES",
  "Trasa": "KR1E"
},
{
  "Postcode": "33300",
  "City": "WIELOGLOWY",
  "Trasa": "KR6A"
},
{
  "Postcode": "33311",
  "City": "WIELOGLOWY",
  "Trasa": "KR6A"
},
{
  "Postcode": "33311",
  "City": "WIELOPOLE",
  "Trasa": "KR6A"
},
{
  "Postcode": "32420",
  "City": "WIENIEC",
  "Trasa": "KR6X"
},
{
  "Postcode": "32740",
  "City": "WIERUSZYCE",
  "Trasa": "KRX1"
},
{
  "Postcode": "33122",
  "City": "WIERZCHOSLAWICE",
  "Trasa": "KR5A"
},
{
  "Postcode": "32089",
  "City": "WIERZCHOWIE",
  "Trasa": "KR1E"
},
{
  "Postcode": "32010",
  "City": "WIKTOROWICE",
  "Trasa": "KR3B"
},
{
  "Postcode": "32091",
  "City": "WILCZKOWICE",
  "Trasa": "KR3B"
},
{
  "Postcode": "32010",
  "City": "WILKOW",
  "Trasa": "KR3B"
},
{
  "Postcode": "34617",
  "City": "WILKOWISKO",
  "Trasa": "KRX1"
},
{
  "Postcode": "32420",
  "City": "WINIARY",
  "Trasa": "KR6X"
},
{
  "Postcode": "32720",
  "City": "WISNICZ MALY",
  "Trasa": "KR5C"
},
{
  "Postcode": "32095",
  "City": "WLADYSLAW",
  "Trasa": "KR3B"
},
{
  "Postcode": "32031",
  "City": "WLOSAN",
  "Trasa": "KR6X"
},
{
  "Postcode": "33322",
  "City": "WOJNAROWA",
  "Trasa": "KR6A"
},
{
  "Postcode": "32830",
  "City": "WOJNICZ",
  "Trasa": "KR5C"
},
{
  "Postcode": "32007",
  "City": "WOLA BATORSKA",
  "Trasa": "KR5X"
},
{
  "Postcode": "32852",
  "City": "WOLA DEBINSKA",
  "Trasa": "KR5C"
},
{
  "Postcode": "33311",
  "City": "WOLA KUROWSKA",
  "Trasa": "KR6A"
},
{
  "Postcode": "32010",
  "City": "WOLA LUBORZYCKA",
  "Trasa": "KR3B"
},
{
  "Postcode": "33394",
  "City": "WOLA MARCINKOWSKA",
  "Trasa": "KR6B"
},
{
  "Postcode": "32700",
  "City": "WOLA NIESZKOWSKA",
  "Trasa": "KR5C"
},
{
  "Postcode": "33150",
  "City": "WOLA RZEDZINSKA",
  "Trasa": "KR5B"
},
{
  "Postcode": "34625",
  "City": "WOLA SKRZYDLANSKA",
  "Trasa": "KRX1"
},
{
  "Postcode": "32091",
  "City": "WOLA WIECLAWSKA",
  "Trasa": "KR3B"
},
{
  "Postcode": "32740",
  "City": "WOLA WIERUSZYCKA",
  "Trasa": "KRX1"
},
{
  "Postcode": "32007",
  "City": "WOLA ZABIERZOWSKA",
  "Trasa": "KR5X"
},
{
  "Postcode": "32087",
  "City": "WOLA ZACHARIASZOWSKA",
  "Trasa": "KR3B"
},
{
  "Postcode": "32740",
  "City": "WOLICA",
  "Trasa": "KRX1"
},
{
  "Postcode": "32040",
  "City": "WRZASOWICE",
  "Trasa": "KR1D"
},
{
  "Postcode": "32010",
  "City": "WYSIOLEK LUBORZYCKI",
  "Trasa": "KR3B"
},
{
  "Postcode": "33331",
  "City": "WYSKITNA",
  "Trasa": "KR6A"
},
{
  "Postcode": "34600",
  "City": "WYSOKIE",
  "Trasa": "KR6X"
},
{
  "Postcode": "32020",
  "City": "ZABAWA",
  "Trasa": "KR5X"
},
{
  "Postcode": "32080",
  "City": "ZABIERZOW",
  "Trasa": "KR1E"
},
{
  "Postcode": "32006",
  "City": "ZABIERZOW BOCHENSKI",
  "Trasa": "KR5X"
},
{
  "Postcode": "32007",
  "City": "ZABIERZOW BOCHENSKI",
  "Trasa": "KR5X"
},
{
  "Postcode": "32020",
  "City": "ZABLOCIE",
  "Trasa": "KR5X"
},
{
  "Postcode": "33240",
  "City": "ZABNO",
  "Trasa": "KR5A"
},
{
  "Postcode": "33242",
  "City": "ZABNO",
  "Trasa": "KR5A"
},
{
  "Postcode": "32090",
  "City": "ZABORZE",
  "Trasa": "KR3B"
},
{
  "Postcode": "33140",
  "City": "ZACZARNIE",
  "Trasa": "KR5A"
},
{
  "Postcode": "32095",
  "City": "ZAGAJE",
  "Trasa": "KR3B"
},
{
  "Postcode": "32090",
  "City": "ZAGAJE SMROKOWSKIE",
  "Trasa": "KR3B"
},
{
  "Postcode": "32420",
  "City": "ZAGORZANY",
  "Trasa": "KR6X"
},
{
  "Postcode": "32005",
  "City": "ZAGORZE",
  "Trasa": "KR5X"
},
{
  "Postcode": "32091",
  "City": "ZAGORZYCE DWORSKIE",
  "Trasa": "KR3B"
},
{
  "Postcode": "32091",
  "City": "ZAGORZYCE STARE",
  "Trasa": "KR3B"
},
{
  "Postcode": "32406",
  "City": "ZAKLICZYN",
  "Trasa": "KR6X"
},
{
  "Postcode": "32003",
  "City": "ZAKRZOW",
  "Trasa": "KR5X"
},
{
  "Postcode": "32830",
  "City": "ZAKRZOW",
  "Trasa": "KR5C"
},
{
  "Postcode": "32003",
  "City": "ZAKRZOWIEC",
  "Trasa": "KR5X"
},
{
  "Postcode": "32420",
  "City": "ZALESIANY",
  "Trasa": "KR6X"
},
{
  "Postcode": "32095",
  "City": "ZALESIE",
  "Trasa": "KR3B"
},
{
  "Postcode": "34650",
  "City": "ZAMIESCIE",
  "Trasa": "KR6X"
},
{
  "Postcode": "32046",
  "City": "ZAMLYNIE",
  "Trasa": "KR3B"
},
{
  "Postcode": "32010",
  "City": "ZASTOW",
  "Trasa": "KR3B"
},
{
  "Postcode": "32445",
  "City": "ZAWADA",
  "Trasa": "KR6X"
},
{
  "Postcode": "32700",
  "City": "ZAWADA",
  "Trasa": "KR5C"
},
{
  "Postcode": "33112",
  "City": "ZAWADA",
  "Trasa": "KR5B"
},
{
  "Postcode": "32865",
  "City": "ZAWADA USZEWSKA",
  "Trasa": "KR6B"
},
{
  "Postcode": "34650",
  "City": "ZAWADKA",
  "Trasa": "KR6X"
},
{
  "Postcode": "32420",
  "City": "ZBORCZYCE",
  "Trasa": "KR5X"
},
{
  "Postcode": "32741",
  "City": "ZBYDNIOW",
  "Trasa": "KRX1"
},
{
  "Postcode": "33113",
  "City": "ZBYLITOWSKA GORA",
  "Trasa": "KR5B"
},
{
  "Postcode": "32091",
  "City": "ZDZIESLAWICE",
  "Trasa": "KR3B"
},
{
  "Postcode": "32415",
  "City": "ZEGARTOWICE",
  "Trasa": "KRX1"
},
{
  "Postcode": "32731",
  "City": "ZEGOCINA",
  "Trasa": "KRX1"
},
{
  "Postcode": "33200",
  "City": "ZELAZOWKA",
  "Trasa": "KR5A"
},
{
  "Postcode": "32082",
  "City": "ZELKOW",
  "Trasa": "KR1E"
},
{
  "Postcode": "32095",
  "City": "ZERKOWICE",
  "Trasa": "KR3B"
},
{
  "Postcode": "32414",
  "City": "ZEROSLAWICE",
  "Trasa": "KRX1"
},
{
  "Postcode": "32091",
  "City": "ZERWANA",
  "Trasa": "KR3B"
},
{
  "Postcode": "33113",
  "City": "ZGLOBICE",
  "Trasa": "KR5B"
},
{
  "Postcode": "32087",
  "City": "ZIELONKI",
  "Trasa": "KR3B"
},
{
  "Postcode": "32088",
  "City": "ZIELONKI",
  "Trasa": "KR3B"
},
{
  "Postcode": "32125",
  "City": "ZLOTNIKI",
  "Trasa": "KR4A"
},
{
  "Postcode": "34603",
  "City": "ZMIACA",
  "Trasa": "KR6B"
},
{
  "Postcode": "32125",
  "City": "ZOFIPOLE",
  "Trasa": "KR4A"
},
{
  "Postcode": "32420",
  "City": "ZRECZYCE",
  "Trasa": "KR6X"
},
{
  "Postcode": "32420",
  "City": "ZRECZYCE (WOLKA ZRECZYCKA)",
  "Trasa": "KR6X"
},
{
  "Postcode": "32125",
  "City": "ZYDOW",
  "Trasa": "KR4A"
}
]
